ID,Prefix,"First Name","Middle Name","Last Name",Suffix,"Address line 1","Address line 2",City,State,Country,"Postal code","Home phone","Work phone","Mobile phone",Email,Language
contact000,,William,,Hart,,"2334 University Drive",,Arlington,VA,US,60607,,,312-705-4271,,
contact001,,Karen,,Jorgensen,,"2755 Heavner Court",,Arlington,VA,US,11743,,516-286-4030,,,
contact002,,Nancy,,Sullivan,,"2500 Brown Bear Drive",,Arlington,VA,US,90017,,,,,
contact003,,Christopher,,Cooper,,"711 Broadway Avenue",,Arlington,VA,US,37403,423-762-1421,,,,
contact004,,Bruce,,Bradley,,"3031 Franklin Street",,Arlington,VA,US,36784,334-636-0337,,,bmitchell@example.com,
contact005,,Kenneth,,Petersen,,"1622 Parkview Drive",,Arlington,VA,US,77002,713-970-9361,,,kramirez@example.com,
contact006,,German,,Ellis,,"2490 Maryland Avenue",,Arlington,VA,US,34640,727-582-6820,,,ggates@example.com,
contact007,,Patrick,,Terry,,"28 Rosewood Lane",,Arlington,VA,US,10036,,,212-948-2310,pvazquez@example.com,
contact008,,Nicholas,,Hunt,,"713 Summit Park Avenue",,Arlington,VA,US,48342,,,248-972-4617,,
contact009,,Charles,,Parks,,"1029 Timber Oak Drive",,Arlington,VA,US,93428,,805-924-7160,,crenner@example.com,
contact010,,Mildred,,Barrett,,"2669 Yorkshire Circle",,Arlington,VA,US,27909,252-331-7237,,,,
contact011,,Christine,,Lynch,,"2788 Meadowbrook Mall Road",,Arlington,VA,US,90232,,,310-838-6693,,
contact012,,Alejandro,,Marshall,,"2281 Hall Place",,Arlington,VA,US,75247,,903-689-6230,,,
contact013,,Jesus,,Dixon,,"2682 Reppert Coal Road",,Arlington,VA,US,48045,,586-948-6102,,jdelaney@example.com,
contact014,,John,,Fernandez,,"2472 Grim Avenue",,Arlington,VA,US,92107,,,,,
contact015,,Karen,,Brown,,"2560 Brentwood Drive",,Arlington,VA,US,78758,,,,kwhite@example.com,
contact016,,Lillian,,Grant,,"274 Elm Drive",,Arlington,VA,US,10016,,,646-485-7909,lskinner@example.com,
contact017,,Michael,,Pearson,,"3703 Crim Lane",,Arlington,VA,US,45342,937-847-4951,,,mfarley@example.com,
contact018,,Larry,,Renard,,"893 Brown Bear Drive",,Arlington,VA,US,92801,,951-642-1553,,,
contact019,,Kelly,,Norris,,"3499 Dark Hollow Road",,Arlington,VA,US,08088,609-268-8352,,,,
contact020,,Keith,,Hill,,"2376 Cliffside Drive",,Arlington,VA,US,13057,,,,,
contact021,,William,,Pierce,,"1615 Boone Street",,Arlington,VA,US,78476,,,361-213-3441,wcolon@example.com,
contact022,,Lissa,,Madsen,,"1589 Martha Ellen Drive",,Arlington,VA,US,89431,,775-762-4424,,,
contact023,,Deborah,,Rhodes,,"465 Emerson Road",,Arlington,VA,US,71302,,,,,
contact024,,Benjamin,,Levi,,"4059 Dogwood Lane",,Arlington,VA,US,85711,,,520-571-2188,,
contact025,,Michael,,Jenkins,,"4723 Werninger Street",,Arlington,VA,US,77032,832-858-3770,,,mpalmer@example.com,
contact026,,Helen,,Webb,,"1265 Rocky Road",,Arlington,VA,US,19103,,215-655-4020,,hhewes@example.com,
contact027,,Randall,,Richards,,"3244 Hazelwood Avenue",,Arlington,VA,US,50322,515-441-9415,,,,
contact028,,Patti,,Moore,,"1547 Lowes Alley",,Arlington,VA,US,43081,,,,,
contact029,,John,,Andersen,,"3727 Boring Lane",,Arlington,VA,US,94108,,,,,
contact030,,Valerie,,Harrison,,"234 North Street",,Arlington,VA,US,24504,,434-947-5671,,vmaldonado@example.com,
contact031,,Gwendolyn,,Vaughn,,"107 Penn Street",,Arlington,VA,US,63066,,,,gesparza@example.com,
contact032,,Yesenia,,Peters,,"1519 Riverwood Drive",,Arlington,VA,US,95714,,,,yfletcher@example.com,
contact033,,Eddie,,Maes,,"144 Mount Street",,Arlington,VA,US,49707,,,,,
contact034,,Janae,,Janssens,,"1025 Locust View Drive",,Arlington,VA,US,94108,,,415-956-3095,,
contact035,,Jimmy,,O'Connor,,"2117 D Street",,Arlington,VA,US,48302,,586-481-9016,,,
contact036,,Seymour,,Bishop,,"7 White Pine Lane",,Arlington,VA,US,22408,,540-660-6740,,ssmith@example.com,
contact037,,Cynthia,,Christensen,,"1060 Griffin Street",,Arlington,VA,US,85034,,602-318-3026,,cpearsall@example.com,
contact038,,Peter,,Terry,,"4608 Pine Street",,Arlington,VA,US,97205,,724-241-6069,,,
contact039,,Scott,,Burke,,"1126 Nash Street",,Arlington,VA,US,48075,313-262-6635,,,sperez@example.com,
contact040,,Mitchell,,Rodriquez,,"4509 Tuna Street",,Arlington,VA,US,48075,,810-958-6869,,,
contact041,,Shara,,Price,,"3445 Wyatt Street",,Arlington,VA,US,33411,,,,swashington@example.com,
contact042,,Alvin,,Graham,,"4903 Fire Access Road",,Arlington,VA,US,27101,,,,,
contact043,,Wayne,,Horton,,"1680 Hamill Avenue",,Arlington,VA,US,92103,858-369-4877,,,wespinoza@example.com,
contact044,,Barry,,Holland,,"1032 Marion Street",,Arlington,VA,US,29210,,,,bhamilton@example.com,
contact045,,Sharon,,Reid,,"3638 Oakridge Farm Lane",,Arlington,VA,US,53095,,,,,
contact046,,Michael,,Gregory,,"1798 Jones Avenue",,Arlington,VA,US,27030,,336-719-7874,,mjefferson@example.com,
contact047,,Donna,,Jackson,,"2088 Hamilton Drive",,Arlington,VA,US,21601,,,410-200-0826,,
contact048,,Kim,,O'Reilly,,"4922 August Lane",,Arlington,VA,US,71301,318-452-1495,,,klange@example.com,
contact049,,Terrance,,Jorgensen,,"160 Prospect Valley Road",,Arlington,VA,US,92614,,310-954-3684,,,
contact050,,Joseph,,Andersen,,"2693 Douglas Dairy Road",,Arlington,VA,US,24216,276-565-4448,,,jdickson@example.com,
contact051,,Jennie,,Greene,,"4926 Gnatty Creek Road",,Arlington,VA,US,11743,,,516-376-6042,,
contact052,,Norman,,Beck,,"117 Jones Avenue",,Arlington,VA,US,27101,336-770-0125,,,,
contact053,,Jennifer,,Mitchell,,"1946 Luke Lane",,Arlington,VA,US,73109,,580-230-2163,,,
contact054,,Danielle,,Bush,,"4186 Victoria Street",,Arlington,VA,US,70810,,225-246-0438,,,
contact055,,Joseph,,Leclercq,,"2844 Waterview Lane",,Arlington,VA,US,87501,,,,jwolfe@example.com,
contact056,,Eric,,Levi,,"4901 Blane Street",,Arlington,VA,US,63141,,,,,
contact057,,Ross,,Miles,,"474 Blackwell Street",,Arlington,VA,US,99503,,,907-394-9774,,
contact058,,Chris,,Bowman,,"465 Wexford Way",,Arlington,VA,US,29115,,803-268-1642,,,
contact059,,Jean,,Gallagher,,"2470 Chipmunk Lane",,Arlington,VA,US,04101,207-773-0536,,,jtaylor@example.com,
contact060,,Daniel,,Nguyen,,"798 Zappia Drive",,Arlington,VA,US,40391,,,,dallen@example.com,
contact061,,Elisabeth,,Hernandez,,"3467 Riverwood Drive",,Arlington,VA,US,96130,,,530-375-3803,ehathaway@example.com,
contact062,,Major,,Dubois,,"2009 Wetzel Lane",,Arlington,VA,US,49503,,,231-366-6953,mmendez@example.com,
contact063,,Robert,,Oliver,,"1595 Delaware Avenue",,Arlington,VA,US,94115,415-346-2788,,,,
contact064,,Franklin,,Stevens,,"1510 Laurel Lee",,Arlington,VA,US,55106,,651-776-0680,,,
contact065,,Joshua,,Poulsen,,"4027 Hilltop Haven Drive",,Arlington,VA,US,07508,973-790-1213,,,,
contact066,,Mark,,Mason,,"543 Mulberry Lane",,Arlington,VA,US,33458,,,561-748-6965,,
contact067,,Minnie,,Morales,,"2346 Sunny Glen Lane",,Arlington,VA,US,44131,,,,,
contact068,,George,,Morrison,,"3363 Gateway Avenue",,Arlington,VA,US,93501,,,,,
contact069,,Lesley,,Kelly,,"3709 Whitman Court",,Arlington,VA,US,06103,,203-632-1984,,,
contact070,,James,,Reed,,"3739 Oak Lane",,Arlington,VA,US,64664,,,,,
contact071,,Mary,,Ferguson,,"3779 Sunny Day Drive",,Arlington,VA,US,92632,,,714-871-2059,mcoulombe@example.com,
contact072,,Gregg,,Lane,,"2541 Lowland Drive",,Arlington,VA,US,60421,,815-423-8107,,gcook@example.com,
contact073,,Leland,,Willis,,"3093 White Avenue",,Arlington,VA,US,78476,361-793-1731,,,lbruce@example.com,
contact074,,Edward,,Hicks,,"2261 Clover Drive",,Arlington,VA,US,80903,719-327-2377,,,,
contact075,,Jill,,Rogers,,"1981 Khale Street",,Arlington,VA,US,29407,,,843-559-5619,jsheets@example.com,
contact076,,Desiree,,Bishop,,"2081 Viking Drive",,Arlington,VA,US,45710,,,,,
contact077,,Mary,,Nichols,,"1990 Francis Mine",,Arlington,VA,US,95742,,530-308-8559,,mmendoza@example.com,
contact078,,Janet,,White,,"4290 Layman Avenue",,Arlington,VA,US,28328,,,910-935-7316,joliver@example.com,
contact079,,Louis,,Vargas,,"2742 Railroad Street",,Arlington,VA,US,49781,,,,,
contact080,,Philip,,Kelly,,"4970 Huntz Lane",,Arlington,VA,US,01581,,978-618-6163,,,
contact081,,Rebecca,,Medina,,"942 Kyle Street",,Arlington,VA,US,68801,,308-440-4377,,,
contact082,,Norman,,Knight,,"1467 Charter Street",,Arlington,VA,US,64108,,,913-710-0074,nbartlett@example.com,
contact083,,Rachel,,Fleming,,"4875 Bridge Avenue",,Arlington,VA,US,70532,,,,rentwistle@example.com,
contact084,,Carol,,Bishop,,"999 Doctors Drive",,Arlington,VA,US,90025,,,310-446-4225,,
contact085,,Jeffery,,Lejeune,,"2824 Twin Oaks Drive",,Arlington,VA,US,49686,231-450-0149,,,,
contact086,,Stefanie,,Perry,,"1989 Sarah Drive",,Arlington,VA,US,70601,,,337-491-8435,,
contact087,,Lorena,,Edwards,,"4528 Irish Lane",,Arlington,VA,US,53718,608-712-2388,,,,
contact088,,Ryan,,Bailey,,"3384 Shinn Avenue",,Arlington,VA,US,16201,,724-548-1542,,,
contact089,,Eric,,Shaw,,"1353 Pennsylvania Avenue",,Arlington,VA,US,08854,,,,ewaugh@example.com,
contact090,,Lula,,Sanchez,,"2678 Lincoln Street",,Arlington,VA,US,08008,609-492-6151,,,,
contact091,,William,,Parker,,"4598 Melody Lane",,Arlington,VA,US,23233,,,804-360-7542,wgarza@example.com,
contact092,,Tammy,,Nichols,,"1024 Pursglove Court",,Arlington,VA,US,45402,,937-315-2968,,twhitehead@example.com,
contact093,,Janice,,White,,"2082 Andy Street",,Arlington,VA,US,57702,,605-381-5896,,,
contact094,,Pearl,,Carter,,"1151 Emerson Road",,Arlington,VA,US,71301,,318-719-9989,,pterry@example.com,
contact095,,Julie,,Patterson,,"1771 Myra Street",,Arlington,VA,US,02852,,,,,
contact096,,Carolyn,,Jorgensen,,"4758 Mill Street",,Arlington,VA,US,29672,,,864-264-2987,cdewitt@example.com,
contact097,,Laura,,Douglas,,"3561 Trainer Avenue",,Arlington,VA,US,52803,309-568-0443,,,,
contact098,,Josephine,,Stewart,,"4149 New Creek Road",,Arlington,VA,US,35808,,,,jhill@example.com,
contact099,,Ann,,Jennings,,"476 Star Trek Drive",,Arlington,VA,US,32548,,,,,
contact100,,Dale,,Burns,,"2510 Lucy Lane",,Arlington,VA,US,47710,,,812-437-4058,,
contact101,,Darcy,,Smith,,"937 Laurel Lee",,Arlington,VA,US,55121,651-994-3258,,,dsmith@example.com,
contact102,,Michael,,Grady,,"2973 Turkey Pen Lane",,Arlington,VA,US,36104,334-570-8266,,,,
contact103,,Lisa,,Loftis,,"934 Grant Street",,Arlington,VA,US,75652,903-836-6691,,,,
contact104,,Carrie,,Noyola,,"4056 Stonecoal Road",,Arlington,VA,US,43545,419-598-9022,,,,
contact105,,James,,Kasper,,"3507 Sycamore Lake Road",,Arlington,VA,US,53202,,920-483-1478,,jkasper@example.com,
contact106,,Eleanor,,Perez,,"4468 Powder House Road",,Arlington,VA,US,33401,561-573-9638,,,eperez@example.com,
contact107,,Ashley,,Harper,,"1485 Wyatt Street",,Arlington,VA,US,33401,,,561-414-7805,,
contact108,,Madlyn,,Brown,,"661 Irish Lane",,Arlington,VA,US,54650,,,,mbrown@example.com,
contact109,,Floyd,,Lawrence,,"615 Biddie Lane",,Arlington,VA,US,23063,804-556-8913,,,,
contact110,,Brian,,Milburn,,"1226 Rocky Road",,Arlington,VA,US,19103,,215-669-1799,,bmilburn@example.com,
contact111,,Harry,,Owens,,"4544 Harrison Street",,Arlington,VA,US,94909,,415-482-8690,,howens@example.com,
contact112,,Alecia,,Cavanaugh,,"3760 Tibbs Avenue",,Arlington,VA,US,59901,406-752-5842,,,acavanaugh@example.com,
contact113,,Janet,,Smith,,"620 Center Street",,Arlington,VA,US,93721,,,,jsmith@example.com,
contact114,,James,,Cassano,,"4143 Watson Street",,Arlington,VA,US,08102,,,609-785-1239,jcassano@example.com,
contact115,,Lilly,,McWilliams,,"1469 Libby Street",,Arlington,VA,US,90717,,,,lmcwilliams@example.com,
contact116,,Russell,,Gray,,"3708 Center Street",,Arlington,VA,US,97801,,,541-966-7352,rgray@example.com,
contact117,,James,,Saba,,"1606 Driftwood Road",,Arlington,VA,US,95030,,,408-395-6749,jsaba@example.com,
contact118,,William,,Cannon,,"4197 Taylor Street",,Arlington,VA,US,10641,,914-606-7634,,wcannon@example.com,
contact119,,Deana,,Cruz,,"2966 Cody Ridge Road",,Arlington,VA,US,73942,580-520-2033,,,,
contact120,,Valarie,,Thompson,,"4159 Catherine Drive",,Arlington,VA,US,58102,701-234-7591,,,vthompson@example.com,
contact121,,Aaron,,Jackson,,"2162 Zappia Drive",,Arlington,VA,US,45203,,,859-379-2034,ajackson@example.com,
contact122,,Brett,,Buchanan,,"2157 Garfield Road",,Arlington,VA,US,61614,,,309-693-0317,,
contact123,,Mathew,,Pacheco,,"2777 Columbia Mine Road",,Arlington,VA,US,25701,,304-523-5624,,,
contact124,,Joshua,,Gagne,,"4699 Lake Floyd Circle",,Arlington,VA,US,19714,,302-224-2801,,jgagne@example.com,
contact125,,Mamie,,Curtis,,"2751 Aspen Court",,Arlington,VA,US,02132,,,,,
contact126,,Stephanie,,Fulmer,,"916 Ventura Drive",,Arlington,VA,US,93901,,,831-303-5569,sfulmer@example.com,
contact127,,Ronald,,Ohara,,"1882 Doctors Drive",,Arlington,VA,US,90245,,310-363-1264,,rohara@example.com,
contact128,,Dean,,Hargrave,,"3951 Dogwood Road",,Arlington,VA,US,85016,,,,,
contact129,,Amy,,Ellis,,"3007 Arthur Avenue",,Arlington,VA,US,61032,,,815-812-8309,,
contact130,,Christine,,Cain,,"4944 Walt Nuzum Farm Road",,Arlington,VA,US,14048,585-403-8150,,,ccain@example.com,
contact131,,Robert,,Hughes,,"1389 Lynn Ogden Lane",,Arlington,VA,US,77662,,,,,
contact132,,Chester,,Tate,,"3291 Brown Bear Drive",,Arlington,VA,US,92390,,,951-719-8072,ctate@example.com,
contact133,,Charles,,McCoy,,"2779 Fire Access Road",,Arlington,VA,US,27406,,336-816-2897,,,
contact134,,Teresa,,Sutton,,"1170 Austin Avenue",,Arlington,VA,US,31501,,,912-287-4657,tsutton@example.com,
contact135,,Lucille,,Sanders,,"3305 Elliot Avenue",,Arlington,VA,US,98032,,,,,
contact136,,Zola,,Hunsinger,,"2219 Prudence Street",,Arlington,VA,US,48335,,,,zhunsinger@example.com,
contact137,,Marlon,,Cook,,"4112 Pinewood Avenue",,Arlington,VA,US,49967,906-852-5569,,,,
contact138,,Allen,,Helms,,"1817 Poco Mas Drive",,Arlington,VA,US,75067,214-462-2912,,,,
contact139,,Roberto,,Moreno,,"3729 Mercer Street",,Arlington,VA,US,54851,,,715-653-6546,,
contact140,,Scott,,Yuen,,"2130 Conference Center Way",,Arlington,VA,US,18503,570-972-2175,,,syuen@example.com,
contact141,,Charleen,,Armstrong,,"1954 Farland Avenue",,Arlington,VA,US,78041,,,830-421-6926,carmstrong@example.com,
contact142,,Linda,,Calkins,,"4593 Ashmor Drive",,Arlington,VA,US,56482,,218-325-2497,,,
contact143,,Donald,,Jones,,"3291 Davis Avenue",,Arlington,VA,US,94612,707-749-0247,,,djones@example.com,
contact144,,Jacque,,Taylor,,"4418 Post Avenue",,Arlington,VA,US,55769,218-885-0759,,,,
contact145,,Carlos,,Keel,,"399 Wetzel Lane",,Arlington,VA,US,49649,,231-263-5904,,ckeel@example.com,
contact146,,Dona,,Schneider,,"4247 Juniper Drive",,Arlington,VA,US,48858,,989-934-4048,,,
contact147,,Jennifer,,Zayas,,"171 Parkway Drive",,Arlington,VA,US,85219,520-463-5013,,,jzayas@example.com,
contact148,,Michael,,Prather,,"3153 Pick Street",,Arlington,VA,US,81435,,,970-729-4878,,
contact149,,Katherine,,Thompson,,"2863 Whaley Lane",,Arlington,VA,US,53225,262-416-1447,,,,
contact150,,Patsy,,Ward,,"3706 Linden Avenue",,Arlington,VA,US,32789,,,407-643-2869,,
contact151,,Robin,,Brandon,,"4091 Eagle Lane",,Arlington,VA,US,55811,218-729-9874,,,,
contact152,,Mamie,,Kane,,"784 Maloy Court",,Arlington,VA,US,66438,,,785-396-6980,,
contact153,,Carol,,Jefferson,,"803 Capitol Avenue",,Arlington,VA,US,46915,,,765-566-1131,cjefferson@example.com,
contact154,,Richard,,Cortez,,"4544 Duke Lane",,Arlington,VA,US,08854,,732-699-4290,,,
contact155,,Vanessa,,Adams,,"4434 Masonic Drive",,Arlington,VA,US,59102,,406-652-7289,,,
contact156,,Alexandria,,Collins,,"646 Shingleton Road",,Arlington,VA,US,49007,,269-382-6274,,,
contact157,,Patrick,,Mifflin,,"4459 Mesa Drive",,Arlington,VA,US,89032,,,702-371-7581,pmifflin@example.com,
contact158,,Edith,,Ritter,,"4929 Trainer Avenue",,Arlington,VA,US,61265,309-524-0848,,,,
contact159,,Barbara,,Smart,,"2158 Oak Avenue",,Arlington,VA,US,60173,,,,,
contact160,,Anthony,,Alcaraz,,"3694 Wright Court",,Arlington,VA,US,35205,,,,aalcaraz@example.com,
contact161,,Annie,,Wheeler,,"1548 Woodlawn Drive",,Arlington,VA,US,53085,,414-596-3034,,awheeler@example.com,
contact162,,Judith,,Rosa,,"4813 Metz Lane",,Arlington,VA,US,01608,,,857-229-7179,jrosa@example.com,
contact163,,Daniel,,Coldwell,,"53 Coolidge Street",,Arlington,VA,US,59101,,,406-896-4193,dcoldwell@example.com,
contact164,,Virginia,,Sanchez,,"4470 Circle Drive",,Arlington,VA,US,77020,,,832-554-4957,vsanchez@example.com,
contact165,,Howard,,Chow,,"675 Jarvisville Road",,Arlington,VA,US,48933,,517-241-1371,,hchow@example.com,
contact166,,Jose,,Reyes,,"4141 Abner Road",,Arlington,VA,US,54401,,,,jreyes@example.com,
contact167,,Brian,,Tardif,,"3562 Harrison Street",,Arlington,VA,US,94903,,415-507-4264,,btardif@example.com,
contact168,,Theodore,,Davis,,"3232 Friendship Lane",,Arlington,VA,US,94612,,,408-550-6507,,
contact169,,Theodore,,Garza,,"4765 Colonial Drive",,Arlington,VA,US,77803,,979-587-3964,,tgarza@example.com,
contact170,,Linda,,Sullivan,,"1682 Trails End Road",,Arlington,VA,US,33301,954-269-8274,,,,
contact171,,Alfred,,McCollum,,"1706 Coal Street",,Arlington,VA,US,16879,,814-345-8176,,,
contact172,,Donald,,Trimble,,"3841 Driftwood Road",,Arlington,VA,US,94612,408-413-4316,,,,
contact173,,Margaret,,Pickle,,"536 Golf Course Drive",,Arlington,VA,US,22070,703-406-2959,,,,
contact174,,Rosemary,,Thompson,,"3738 Mudlick Road",,Arlington,VA,US,98902,,,509-494-7990,rthompson@example.com,
contact175,,Charlie,,Plascencia,,"737 Bailey Drive",,Arlington,VA,US,52401,,,,cplascencia@example.com,
contact176,,Michael,,Johnson,,"1022 Collins Street",,Arlington,VA,US,33610,813-997-8777,,,,
contact177,,Julian,,Thompson,,"1153 Aspen Court",,Arlington,VA,US,02199,,,,,
contact178,,James,,Crabtree,,"2317 Capitol Avenue",,Arlington,VA,US,46214,765-621-2161,,,jcrabtree@example.com,
contact179,,Linda,,Rodriguez,,"2536 Sampson Street",,Arlington,VA,US,80014,303-593-8546,,,lrodriguez@example.com,
contact180,,Richard,,Murry,,"2614 Oliver Street",,Arlington,VA,US,76102,,,,rmurry@example.com,
contact181,,Lynn,,Blevins,,"2148 Jody Road",,Arlington,VA,US,19088,610-561-8499,,,,
contact182,,Peter,,Moss,,"2655 Mount Tabor",,Arlington,VA,US,10013,,,,pmoss@example.com,
contact183,,Sean,,Phillips,,"4115 Holly Street",,Arlington,VA,US,30601,,,,sphillips@example.com,
contact184,,Florencia,,Jones,,"1594 Mesa Drive",,Arlington,VA,US,89119,702-406-6778,,,fjones@example.com,
contact185,,Jason,,Kopec,,"38 Single Street",,Arlington,VA,US,01803,,,781-601-0490,jkopec@example.com,
contact186,,Ursula,,Miles,,"3425 George Avenue",,Arlington,VA,US,36602,,251-269-0927,,,
contact187,,Robert,,Lust,,"4244 Griffin Street",,Arlington,VA,US,85034,,602-283-6565,,rlust@example.com,
contact188,,Lawrence,,Desantis,,"2508 Forest Drive",,Arlington,VA,US,22030,703-934-4663,,,ldesantis@example.com,
contact189,,Aaron,,Robinson,,"1513 Franklin Avenue",,Arlington,VA,US,78401,361-904-4223,,,,
contact190,,David,,Brown,,"3137 Bird Spring Lane",,Arlington,VA,US,77327,,,,dbrown@example.com,
contact191,,Robert,,Soriano,,"493 Augusta Park",,Arlington,VA,US,26301,,304-815-1165,,rsoriano@example.com,
contact192,,Kathleen,,Blanco,,"3951 Pheasant Ridge Road",,Arlington,VA,US,18951,,,,kblanco@example.com,
contact193,,Rudy,,Yeh,,"4438 Liberty Avenue",,Arlington,VA,US,91505,,714-488-8115,,,
contact194,,Adriana,,Fullmer,,"243 Little Street",,Arlington,VA,US,44311,,,330-595-2465,afullmer@example.com,
contact195,,Darrell,,Rohr,,"497 Water Street",,Arlington,VA,US,94520,925-354-6288,,,drohr@example.com,
contact196,,Brett,,Hastings,,"3268 Foley Street",,Arlington,VA,US,33128,,,,,
contact197,,Kelly,,Jackson,,"1816 State Street",,Arlington,VA,US,63011,314-225-4879,,,kjackson@example.com,
contact198,,Julie,,Kendall,,"968 West Virginia Avenue",,Arlington,VA,US,12205,518-880-9285,,,jkendall@example.com,
contact199,,Arthur,,Downing,,"790 Traction Street",,Arlington,VA,US,29607,,,864-458-7797,adowning@example.com,
contact200,,Nellie,,Filson,,"1015 Koontz Lane",,Arlington,VA,US,91723,,,,nfilson@example.com,
contact201,,Minh,,Ray,,"4817 George Avenue",,Arlington,VA,US,36602,,,,,
contact202,,Paul,,McCoy,,"598 Norma Lane",,Arlington,VA,US,71101,,318-623-5076,,,
contact203,,Annie,,King,,"3627 Paradise Lane",,Arlington,VA,US,91761,,,909-673-7832,aking@example.com,
contact204,,Carrol,,Countryman,,"2708 Camden Place",,Arlington,VA,US,29902,843-986-4363,,,ccountryman@example.com,
contact205,,Joseph,,Dupree,,"2235 High Meadow Lane",,Arlington,VA,US,18823,,,570-434-5047,jdupree@example.com,
contact206,,Lula,,Zavala,,"3311 Bluff Street",,Arlington,VA,US,21502,,,301-722-3339,lzavala@example.com,
contact207,,Peter,,Houghton,,"2563 Bingamon Branch Road",,Arlington,VA,US,60605,847-224-8870,,,,
contact208,,Brady,,Mott,,"104 Still Street",,Arlington,VA,US,43615,,419-710-4273,,,
contact209,,Luis,,Perham,,"1281 Elk Street",,Arlington,VA,US,92660,,,949-759-9951,,
contact210,,James,,Harris,,"129 Wood Street",,Arlington,VA,US,70360,,985-858-1032,,jharris@example.com,
contact211,,William,,Hogan,,"3788 Colonial Drive",,Arlington,VA,US,77024,,,979-667-9932,whogan@example.com,
contact212,,Willis,,Vogler,,"274 Stoneybrook Road",,Arlington,VA,US,32810,,321-517-3756,,,
contact213,,Carol,,Johnson,,"4002 Parkview Drive",,Arlington,VA,US,91766,,,,,
contact214,,Leroy,,Jenkins,,"4210 Baker Avenue",,Arlington,VA,US,75244,,817-819-5791,,ljenkins@example.com,
contact215,,Kim,,Abate,,"2704 Spring Avenue",,Arlington,VA,US,19714,,,267-659-1104,kabate@example.com,
contact216,,Albertina,,McDowell,,"245 Highland Drive",,Arlington,VA,US,54911,,,,,
contact217,,Alice,,Bisbee,,"4903 Brentwood Drive",,Arlington,VA,US,76530,,,,abisbee@example.com,
contact218,,Judy,,Anderson,,"3906 Hillview Drive",,Arlington,VA,US,30523,,706-947-0565,,janderson@example.com,
contact219,,Roger,,Colin,,"2858 Cessna Drive",,Arlington,VA,US,46804,,,260-434-5123,rcolin@example.com,
contact220,,John,,Paulus,,"2118 Jennifer Lane",,Arlington,VA,US,27705,,,919-543-0572,jpaulus@example.com,
contact221,,Tameika,,Hall,,"215 Huntz Lane",,Arlington,VA,US,01862,,978-604-4442,,thall@example.com,
contact222,,Mary,,Hamilton,,"884 Brooklyn Street",,Arlington,VA,US,24175,,540-966-8530,,mhamilton@example.com,
contact223,,Riley,,Smith,,"4261 Jewell Road",,Arlington,VA,US,55415,,612-743-3808,,,
contact224,,John,,Lehto,,"1829 Mapleview Drive",,Arlington,VA,US,38128,,731-303-5860,,,
contact225,,Raina,,Lane,,"2283 Cemetery Street",,Arlington,VA,US,77027,,,,rlane@example.com,
contact226,,Gertrude,,Johnson,,"3522 Wyatt Street",,Arlington,VA,US,33436,561-502-3009,,,,
contact227,,Annie,,Rosado,,"1578 East Avenue",,Arlington,VA,US,85040,,480-343-6573,,,
contact228,,Sherry,,Campisi,,"4761 Masonic Hill Road",,Arlington,VA,US,72212,,,,,
contact229,,Julia,,Lewis,,"757 Richison Drive",,Arlington,VA,US,59102,,406-294-0573,,jlewis@example.com,
contact230,,Herbert,,Clark,,"575 Dawson Drive",,Arlington,VA,US,72105,,501-815-5306,,,
contact231,,Gary,,Dunham,,"212 Geneva Street",,Arlington,VA,US,10019,,,917-472-9417,,
contact232,,Lois,,Laster,,"3871 Grant Street",,Arlington,VA,US,75652,,,903-889-8914,,
contact233,,Jean,,Royster,,"898 Lakeland Park Drive",,Arlington,VA,US,30339,,,770-570-2582,,
contact234,,Wade,,Schafer,,"4010 Ersel Street",,Arlington,VA,US,75074,,,214-344-5390,wschafer@example.com,
contact235,,Stephen,,Hutchinson,,"1156 Flynn Street",,Arlington,VA,US,44116,,440-895-9466,,,
contact236,,Charles,,Adams,,"874 Hartland Avenue",,Arlington,VA,US,53085,,,920-317-6579,cadams@example.com,
contact237,,Regina,,Grimes,,"4198 Garrett Street",,Arlington,VA,US,49093,269-278-1391,,,rgrimes@example.com,
contact238,,Dina,,Barber,,"4214 Berkley Street",,Arlington,VA,US,19714,484-886-3673,,,,
contact239,,Sherry,,McCoy,,"4622 Saint Francis Way",,Arlington,VA,US,53227,262-932-5592,,,smccoy@example.com,
contact240,,Ray,,Wagner,,"1029 Cunningham Court",,Arlington,VA,US,48075,248-702-7483,,,,
contact241,,Sonia,,Seaman,,"3214 Pinewood Avenue",,Arlington,VA,US,49855,,,906-623-5018,sseaman@example.com,
contact242,,Frank,,Walter,,"1136 Carriage Lane",,Arlington,VA,US,43615,,,567-952-1783,,
contact243,,James,,Williams,,"831 Chandler Drive",,Arlington,VA,US,64832,,417-642-1598,,jwilliams@example.com,
contact244,,Betty,,Conover,,"1211 Laurel Lee",,Arlington,VA,US,64106,,660-205-4630,,bconover@example.com,
contact245,,John,,Petway,,"4806 Lamberts Branch Road",,Arlington,VA,US,33311,,,786-566-6595,,
contact246,,Donald,,Brock,,"4444 Friendship Lane",,Arlington,VA,US,94607,,,,dbrock@example.com,
contact247,,Callie,,Houston,,"1089 Counts Lane",,Arlington,VA,US,06450,860-205-4387,,,chouston@example.com,
contact248,,Alan,,Robertson,,"1922 Sharon Lane",,Arlington,VA,US,63011,,,,,
contact249,,Samuel,,Nance,,"2621 Neville Street",,Arlington,VA,US,47546,,,812-630-4839,snance@example.com,
contact250,,Ronald,,Eldridge,,"3083 Watson Lane",,Arlington,VA,US,78024,,830-238-2291,,reldridge@example.com,
contact251,,Stephen,,Dexter,,"2861 Fairfax Drive",,Arlington,VA,US,90017,,,909-216-3631,sdexter@example.com,
contact252,,Tamera,,Murphy,,"3100 Pringle Drive",,Arlington,VA,US,60607,,312-421-7714,,tmurphy@example.com,
contact253,,Scott,,Dix,,"1256 Rubaiyat Road",,Arlington,VA,US,49503,,,,,
contact254,,Danny,,Saldana,,"1065 Spirit Drive",,Arlington,VA,US,32801,386-845-4223,,,,
contact255,,George,,Smith,,"4317 Austin Avenue",,Arlington,VA,US,31405,,912-355-7535,,gsmith@example.com,
contact256,,Donna,,Rooks,,"1733 Walton Street",,Arlington,VA,US,84403,,,801-391-4817,,
contact257,,Steven,,Grubb,,"4746 Science Center Drive",,Arlington,VA,US,83237,,,208-646-2447,,
contact258,,Margaret,,North,,"3885 Abia Martin Drive",,Arlington,VA,US,11735,631-531-1849,,,mnorth@example.com,
contact259,,Linda,,Wentworth,,"707 Norma Avenue",,Arlington,VA,US,77006,,936-893-4297,,lwentworth@example.com,
contact260,,Donna,,Bordelon,,"4252 Irving Road",,Arlington,VA,US,45701,,740-541-9737,,dbordelon@example.com,
contact261,,Tyler,,Crawford,,"3013 Red Hawk Road",,Arlington,VA,US,56262,,320-793-0457,,tcrawford@example.com,
contact262,,Carla,,Hogg,,"3025 Walnut Street",,Arlington,VA,US,39301,601-581-5695,,,chogg@example.com,
contact263,,Kevin,,Kohler,,"1516 Cabell Avenue",,Arlington,VA,US,22123,703-594-0343,,,,
contact264,,Mary,,Alexander,,"460 Eden Drive",,Arlington,VA,US,23224,,804-921-6148,,,
contact265,,Geraldine,,Johnston,,"2805 Freed Drive",,Arlington,VA,US,95202,209-627-6415,,,gjohnston@example.com,
contact266,,Brett,,Johnson,,"3709 Gambler Lane",,Arlington,VA,US,77060,,,,,
contact267,,Esther,,Prosser,,"4130 Clarksburg Park Road",,Arlington,VA,US,86511,928-309-7528,,,,
contact268,,Arthur,,Pace,,"3559 Walt Nuzum Farm Road",,Arlington,VA,US,14591,,,,,
contact269,,Robert,,Thomas,,"1998 Raver Croft Drive",,Arlington,VA,US,37601,,,423-647-4601,rthomas@example.com,
contact270,,Lillian,,Vanover,,"3394 Pearl Street",,Arlington,VA,US,95814,,916-316-4773,,lvanover@example.com,
contact271,,Herbert,,Lindsey,,"2972 Kuhl Avenue",,Arlington,VA,US,30518,,678-714-8405,,hlindsey@example.com,
contact272,,Robert,,Keaton,,"4964 Clover Drive",,Arlington,VA,US,88083,719-349-9740,,,,
contact273,,Pedro,,Sutton,,"4246 Thrash Trail",,Arlington,VA,US,75601,903-555-3024,,,psutton@example.com,
contact274,,Edna,,Ray,,"3421 Bird Spring Lane",,Arlington,VA,US,77539,,281-534-9883,,,
contact275,,Myrtle,,Bishop,,"673 Kidd Avenue",,Arlington,VA,US,99926,,907-886-9084,,,
contact276,,Phyllis,,Heslin,,"3420 Pratt Avenue",,Arlington,VA,US,97205,,,,pheslin@example.com,
contact277,,Robert,,Pierre,,"4340 Ingram Road",,Arlington,VA,US,27409,,,336-665-7190,,
contact278,,Aaron,,Brock,,"995 Pritchard Court",,Arlington,VA,US,56183,,,,,
contact279,,Albert,,Morrissette,,"3143 Bailey Drive",,Arlington,VA,US,52627,,319-372-8323,,amorrissette@example.com,
contact280,,Jessica,,Goins,,"4326 Andell Road",,Arlington,VA,US,37201,,,,jgoins@example.com,
contact281,,Harry,,Taylor,,"1756 Jenna Lane",,Arlington,VA,US,45036,,,,,
contact282,,Barbara,,Woodard,,"1086 Maxwell Farm Road",,Arlington,VA,US,89503,,,,bwoodard@example.com,
contact283,,Barbara,,McPeek,,"4277 Rainy Day Drive",,Arlington,VA,US,02129,,617-904-4680,,bmcpeek@example.com,
contact284,,Erline,,Crawford,,"4052 Leverton Cove Road",,Arlington,VA,US,01007,,,,,
contact285,,Tammy,,Bryer,,"1449 Flynn Street",,Arlington,VA,US,21076,,,,tbryer@example.com,
contact286,,Jose,,Carlson,,"96 Turnpike Drive",,Arlington,VA,US,36265,,,256-435-7167,,
contact287,,Crystal,,Spann,,"22 Orphan Road",,Arlington,VA,US,14775,,,716-252-6454,,
contact288,,Andrew,,Brown,,"3387 Progress Way",,Arlington,VA,US,50797,,319-961-6914,,,
contact289,,Cindy,,Britton,,"1446 Terra Cotta Street",,Arlington,VA,US,56441,218-678-9794,,,cbritton@example.com,
contact290,,Adrian,,Hutcherson,,"4589 Kincheloe Road",,Arlington,VA,US,97205,503-510-7534,,,ahutcherson@example.com,
contact291,,William,,Kelley,,"695 Tuna Street",,Arlington,VA,US,48302,,,,,
contact292,,Bill,,Harris,,"3625 Freed Drive",,Arlington,VA,US,95202,209-766-1379,,,bharris@example.com,
contact293,,Sam,,McBride,,"2217 Russell Street",,Arlington,VA,US,01608,,978-888-1007,,,
contact294,,Curtis,,Hughes,,"4565 Green Street",,Arlington,VA,US,37115,,,,chughes@example.com,
contact295,,John,,Maestas,,"3136 Traction Street",,Arlington,VA,US,29607,,,864-470-7117,jmaestas@example.com,
contact296,,Claude,,Ortega,,"2973 School Street",,Arlington,VA,US,20011,,,202-882-7855,cortega@example.com,
contact297,,Karen,,Steele,,"3670 Medical Center Drive",,Arlington,VA,US,34228,941-383-2681,,,,
contact298,,Cecil,,Marshall,,"3039 Elm Drive",,Arlington,VA,US,10007,,,646-441-7906,,
contact299,,Pauline,,Pippin,,"4731 Elk Street",,Arlington,VA,US,92688,949-679-6304,,,,
contact300,,Shirley,,Adams,,"451 Blane Street",,Arlington,VA,US,63141,314-576-2466,,,sadams@example.com,
contact301,,Nancy,,Innes,,"4011 State Street",,Arlington,VA,US,63301,314-218-3569,,,ninnes@example.com,
contact302,,Sarah,,Rogers,,"1856 Bassel Street",,Arlington,VA,US,70354,,985-325-0903,,,
contact303,,Daniel,,Dyer,,"3835 Ventura Drive",,Arlington,VA,US,93901,831-308-7301,,,ddyer@example.com,
contact304,,Oscar,,Sylvester,,"2547 Geneva Street",,Arlington,VA,US,10016,,917-451-3821,,osylvester@example.com,
contact305,,William,,Colter,,"1990 Wood Street",,Arlington,VA,US,48706,,,989-220-4342,,
contact306,,Joan,,Guerin,,"182 Scheuvront Drive",,Arlington,VA,US,80211,,,,jguerin@example.com,
contact307,,Diane,,Hill,,"1494 Emerson Road",,Arlington,VA,US,71201,,318-816-0273,,,
contact308,,Terry,,Dyer,,"542 Harvest Lane",,Arlington,VA,US,64106,660-987-7415,,,,
contact309,,James,,Young,,"4618 Millbrook Road",,Arlington,VA,US,60106,,,,,
contact310,,Harvey,,Dellinger,,"2700 School Street",,Arlington,VA,US,20017,,,,,
contact311,,Michael,,Ellingsworth,,"1299 Marshall Street",,Arlington,VA,US,21911,,,410-658-3573,mellingsworth@example.com,
contact312,,Gary,,McMillan,,"4094 Koontz Lane",,Arlington,VA,US,91335,,,,,
contact313,,Carolyn,,Cutts,,"1011 New Street",,Arlington,VA,US,97058,,,,,
contact314,,Grace,,Nobles,,"3089 Emeral Dreams Drive",,Arlington,VA,US,61301,815-220-3560,,,gnobles@example.com,
contact315,,Velda,,Kellogg,,"3505 Owen Lane",,Arlington,VA,US,49503,,,,vkellogg@example.com,
contact316,,Joseph,,Lucero,,"1359 Harron Drive",,Arlington,VA,US,21201,443-489-5046,,,,
contact317,,Joyce,,Shepard,,"1404 Long Street",,Arlington,VA,US,34420,352-245-4095,,,,
contact318,,Elia,,King,,"1792 Davisson Street",,Arlington,VA,US,47904,765-771-9187,,,,
contact319,,Kathy,,Billy,,"899 Whispering Pines Circle",,Arlington,VA,US,75067,972-434-9964,,,kbilly@example.com,
contact320,,Donald,,Tennant,,"4665 West Side Avenue",,Arlington,VA,US,07662,,201-308-7657,,dtennant@example.com,
contact321,,Gloria,,Balser,,"4662 Crestview Manor",,Arlington,VA,US,46055,,,,,
contact322,,Mark,,Goodwin,,"1968 Tuna Street",,Arlington,VA,US,48075,,,,,
contact323,,Adele,,Ziebarth,,"412 Trymore Road",,Arlington,VA,US,56116,,,507-673-9854,,
contact324,,Ross,,Caylor,,"1184 Nutters Barn Lane",,Arlington,VA,US,50525,515-602-4491,,,,
contact325,,Julie,,Dennison,,"3152 Russell Street",,Arlington,VA,US,02141,,,978-953-6815,,
contact326,,Katherine,,Kelley,,"1734 Fleming Street",,Arlington,VA,US,36040,,,,kkelley@example.com,
contact327,,Mark,,Coe,,"798 Timber Oak Drive",,Arlington,VA,US,79072,,,,,
contact328,,Daniel,,Scott,,"4741 Jody Road",,Arlington,VA,US,19108,,,610-615-0470,,
contact329,,Stephen,,Johnson,,"3418 Upton Avenue",,Arlington,VA,US,04101,,,,,
contact330,,William,,Scott,,"4170 Petunia Way",,Arlington,VA,US,35209,,205-816-3690,,,
contact331,,Samuel,,Heath,,"1253 Overlook Drive",,Arlington,VA,US,46017,765-378-6993,,,,
contact332,,Richard,,Hicks,,"3000 Quarry Drive",,Arlington,VA,US,36117,,,334-787-4837,rhicks@example.com,
contact333,,Jessie,,Jacobs,,"2614 White Pine Lane",,Arlington,VA,US,22655,540-683-2632,,,jjacobs@example.com,
contact334,,Christopher,,Martinez,,"4238 Deer Ridge Drive",,Arlington,VA,US,07005,,,973-541-1982,cmartinez@example.com,
contact335,,Sue,,Reynolds,,"1553 Farnum Road",,Arlington,VA,US,10016,,212-370-4226,,,
contact336,,Erma,,Logsdon,,"3244 Eastland Avenue",,Arlington,VA,US,39480,,,601-375-3383,elogsdon@example.com,
contact337,,Candace,,Hume,,"3063 Tennessee Avenue",,Arlington,VA,US,48226,,,248-260-9879,chume@example.com,
contact338,,Larry,,Metzger,,"2806 Harley Vincent Drive",,Arlington,VA,US,44044,440-748-8438,,,,
contact339,,Joshua,,Jennings,,"3475 Parkview Drive",,Arlington,VA,US,77055,,713-973-8846,,jjennings@example.com,
contact340,,Ollie,,Naughton,,"3984 Burke Street",,Arlington,VA,US,02141,781-308-8422,,,,
contact341,,Mary,,Burks,,"3868 Bingamon Branch Road",,Arlington,VA,US,10917,,,845-928-2478,mburks@example.com,
contact342,,Jame,,Rader,,"3667 Deans Lane",,Arlington,VA,US,10538,,,914-833-9153,,
contact343,,Kathy,,Conlin,,"4837 Bartlett Avenue",,Arlington,VA,US,48011,,,,kconlin@example.com,
contact344,,Chad,,Juarez,,"1346 Station Street",,Arlington,VA,US,94607,,,510-932-8669,cjuarez@example.com,
contact345,,Frank,,Cochran,,"1050 Rocket Drive",,Arlington,VA,US,55404,,,612-879-7535,fcochran@example.com,
contact346,,Leslie,,Moore,,"1463 Haven Lane",,Arlington,VA,US,48185,517-673-7753,,,,
contact347,,Willie,,Williams,,"3738 Trymore Road",,Arlington,VA,US,56283,,,,wwilliams@example.com,
contact348,,Salvador,,Rowden,,"4660 Corpening Drive",,Arlington,VA,US,48302,,248-376-9624,,,
contact349,,Philip,,Gilchrist,,"2855 Passaic Street",,Arlington,VA,US,07601,,,,,
contact350,,Stephen,,Winkles,,"725 Bailey Drive",,Arlington,VA,US,52209,,319-454-4935,,,
contact351,,Lawrence,,Colon,,"2331 Raccoon Run",,Arlington,VA,US,98106,,,206-849-6296,,
contact352,,Virginia,,Pappas,,"470 Cook Hill Road",,Arlington,VA,US,06410,,203-529-5210,,vpappas@example.com,
contact353,,Jennie,,Boyd,,"3811 Sigley Road",,Arlington,VA,US,66531,,,,jboyd@example.com,
contact354,,Jennifer,,Compton,,"3509 Marie Street",,Arlington,VA,US,21202,,410-907-1773,,,
contact355,,Kelvin,,Covington,,"1385 Flint Street",,Arlington,VA,US,30303,,678-281-0912,,kcovington@example.com,
contact356,,Doris,,Swafford,,"4800 Blair Court",,Arlington,VA,US,64096,,660-493-7897,,dswafford@example.com,
contact357,,Connie,,Pringle,,"4283 Cessna Drive",,Arlington,VA,US,46802,,,260-420-3836,cpringle@example.com,
contact358,,Joi,,Davis,,"3128 Wilkinson Court",,Arlington,VA,US,33901,,,239-645-8029,,
contact359,,Judy,,Nolin,,"2105 Irving Place",,Arlington,VA,US,63016,,,,jnolin@example.com,
contact360,,Mark,,Poindexter,,"911 Millbrook Road",,Arlington,VA,US,60173,,630-764-3863,,mpoindexter@example.com,
contact361,,Glen,,Jordan,,"4596 Vine Street",,Arlington,VA,US,60605,,847-591-3612,,,
contact362,,John,,Wolfenbarger,,"3319 Robinson Court",,Arlington,VA,US,48607,989-416-5110,,,,
contact363,,Theresa,,Cunningham,,"3847 Maxwell Farm Road",,Arlington,VA,US,22801,,,,tcunningham@example.com,
contact364,,Kate,,Wilcox,,"809 Lucy Lane",,Arlington,VA,US,47708,,812-461-6306,,,
contact365,,Helen,,Guajardo,,"387 Reel Avenue",,Arlington,VA,US,87102,,505-353-1999,,hguajardo@example.com,
contact366,,Thomas,,Starr,,"3724 Sycamore Lake Road",,Arlington,VA,US,54303,920-495-1660,,,tstarr@example.com,
contact367,,Erik,,Cox,,"1579 Wexford Way",,Arlington,VA,US,29150,,,803-316-4121,ecox@example.com,
contact368,,Albert,,Boles,,"195 Green Hill Road",,Arlington,VA,US,72764,,,,,
contact369,,William,,Wade,,"3699 Clement Street",,Arlington,VA,US,30303,404-434-6276,,,wwade@example.com,
contact370,,Marie,,Stephens,,"583 Cedarstone Drive",,Arlington,VA,US,45840,,,,,
contact371,,Angela,,Burgoyne,,"1535 Briarhill Lane",,Arlington,VA,US,44509,,,,,
contact372,,Bruce,,Benson,,"3463 Augusta Park",,Arlington,VA,US,26003,,304-803-6174,,,
contact373,,Hilary,,Walker,,"704 Pine Tree Lane",,Arlington,VA,US,20005,,,240-391-3334,,
contact374,,Dennis,,Short,,"2487 Lakewood Drive",,Arlington,VA,US,07662,,,201-888-6845,,
contact375,,Rebekah,,Mowbray,,"825 Johnny Lane",,Arlington,VA,US,53202,,,414-347-8142,rmowbray@example.com,
contact376,,Thomas,,Pang,,"4855 Hilltop Street",,Arlington,VA,US,01230,413-644-9881,,,tpang@example.com,
contact377,,Wesley,,Locher,,"57 Pratt Avenue",,Arlington,VA,US,98161,,,360-935-5709,wlocher@example.com,
contact378,,Anne,,Perkins,,"2732 Laurel Lee",,Arlington,VA,US,55414,,,651-785-5977,,
contact379,,Erik,,Parker,,"2332 Fleming Street",,Arlington,VA,US,36303,,,,,
contact380,,Tamera,,Bozarth,,"1993 Rockwell Lane",,Arlington,VA,US,28551,252-566-5100,,,,
contact381,,Kristina,,Bull,,"3331 Clinton Street",,Arlington,VA,US,72211,,501-227-3259,,,
contact382,,James,,Goddard,,"1954 Primrose Lane",,Arlington,VA,US,53703,,,,jgoddard@example.com,
contact383,,Jennifer,,Ward,,"4728 Calvin Street",,Arlington,VA,US,21201,443-380-1903,,,,
contact384,,Pablo,,King,,"4709 Taylor Street",,Arlington,VA,US,11590,,,914-625-3135,pking@example.com,
contact385,,Robert,,McGinnis,,"1051 Massachusetts Avenue",,Arlington,VA,US,20036,,,202-833-3392,,
contact386,,Peter,,Armstrong,,"3280 Union Street",,Arlington,VA,US,98133,,,,,
contact387,,James,,Corbo,,"3372 Clay Street",,Arlington,VA,US,46254,,,,,
contact388,,Eric,,Heflin,,"3257 Garrett Street",,Arlington,VA,US,49503,,269-265-9344,,eheflin@example.com,
contact389,,Steven,,Rose,,"648 Warner Street",,Arlington,VA,US,33180,,,305-932-1511,srose@example.com,
contact390,,Christopher,,Smith,,"4439 Tyler Avenue",,Arlington,VA,US,33131,,,305-351-6265,,
contact391,,Sharon,,Hoskinson,,"4754 Clousson Road",,Arlington,VA,US,77063,,713-201-5722,,shoskinson@example.com,
contact392,,Allen,,Palmisano,,"1104 Diamond Street",,Arlington,VA,US,28202,,,,,
contact393,,Tammy,,Easter,,"3471 Tetrick Road",,Arlington,VA,US,33884,,863-325-9755,,teaster@example.com,
contact394,,Timothy,,Betts,,"3660 Hall Street",,Arlington,VA,US,89101,,702-537-0456,,,
contact395,,Patricia,,Wisner,,"4677 Nutter Street",,Arlington,VA,US,64106,816-256-5222,,,pwisner@example.com,
contact396,,Nelly,,Cook,,"3745 Young Road",,Arlington,VA,US,83814,208-446-3243,,,,
contact397,,Marie,,Huges,,"2592 Barrington Court",,Arlington,VA,US,71602,,870-592-0725,,,
contact398,,Evelyn,,Rollins,,"3753 Queens Lane",,Arlington,VA,US,23974,434-696-6068,,,,
contact399,,Tina,,Chandler,,"3637 Quarry Drive",,Arlington,VA,US,36303,,,334-771-5800,,
contact400,,Georgia,,Castro,,"3587 Elliott Street",,Arlington,VA,US,03103,603-576-2820,,,gcastro@example.com,
contact401,,Nicole,,Howland,,"2967 Nicholas Street",,Arlington,VA,US,67476,,,785-254-8935,,
contact402,,Kerry,,Melanson,,"1014 Harvest Lane",,Arlington,VA,US,65322,,,,,
contact403,,Stacy,,Sykes,,"2494 Ingram Street",,Arlington,VA,US,45402,,,,ssykes@example.com,
contact404,,Traci,,Robinson,,"226 Franklin Street",,Arlington,VA,US,36301,334-640-0501,,,trobinson@example.com,
contact405,,Michael,,Leach,,"2157 Farm Meadow Drive",,Arlington,VA,US,86001,,928-913-7675,,,
contact406,,Andrew,,Batiste,,"3088 Roosevelt Road",,Arlington,VA,US,67107,,,,abatiste@example.com,
contact407,,Anita,,Cote,,"1666 Monroe Street",,Arlington,VA,US,77006,,713-424-2160,,,
contact408,,Eloise,,Lee,,"276 East Avenue",,Arlington,VA,US,85282,480-332-8611,,,elee@example.com,
contact409,,Fred,,Daugherty,,"4419 Green Hill Road",,Arlington,VA,US,72761,,,,,
contact410,,Gilbert,,Sabbagh,,"3848 Snider Street",,Arlington,VA,US,81022,,,,gsabbagh@example.com,
contact411,,Marshall,,Stoner,,"819 Buffalo Creek Road",,Arlington,VA,US,37115,,,615-865-2028,mstoner@example.com,
contact412,,Jennifer,,Tremblay,,"2785 Drummond Street",,Arlington,VA,US,07042,,,973-233-5606,,
contact413,,Sarah,,Russo,,"3991 Lyon Avenue",,Arlington,VA,US,01519,,,,srusso@example.com,
contact414,,Annie,,Johnson,,"3981 Loving Acres Road",,Arlington,VA,US,76031,,817-202-7539,,ajohnson@example.com,
contact415,,Lloyd,,Silva,,"2734 Bastin Drive",,Arlington,VA,US,19526,,,484-665-7916,lsilva@example.com,
contact416,,Adolph,,White,,"3332 Hardesty Street",,Arlington,VA,US,12817,,518-494-1795,,awhite@example.com,
contact417,,Michael,,Cole,,"3973 Reeves Street",,Arlington,VA,US,53005,920-838-5769,,,mcole@example.com,
contact418,,Alice,,Royer,,"4349 Hickory Ridge Drive",,Arlington,VA,US,89108,,,,aroyer@example.com,
contact419,,Roberto,,Kennon,,"4240 Strother Street",,Arlington,VA,US,35094,,,205-702-5229,rkennon@example.com,
contact420,,Elizabeth,,Bissette,,"4978 Wilson Street",,Arlington,VA,US,92225,760-922-4085,,,,
contact421,,Constance,,Lavender,,"1691 Woodhill Avenue",,Arlington,VA,US,21875,,,,,
contact422,,Daniel,,Berry,,"2606 Center Avenue",,Arlington,VA,US,93721,,,,dberry@example.com,
contact423,,Michael,,Smith,,"4923 Ethels Lane",,Arlington,VA,US,33801,,863-680-0233,,,
contact424,,James,,Tackett,,"2703 Oakridge Farm Lane",,Arlington,VA,US,53227,,,262-368-2415,,
contact425,,Randall,,Delafuente,,"4944 McVaney Road",,Arlington,VA,US,28263,828-289-3761,,,rdelafuente@example.com,
contact426,,Marlene,,Reyna,,"848 Summit Park Avenue",,Arlington,VA,US,48075,,,,mreyna@example.com,
contact427,,Warren,,Hernandez,,"278 Webster Street",,Arlington,VA,US,08840,732-632-3857,,,,
contact428,,William,,Lewis,,"2077 Wilkinson Street",,Arlington,VA,US,37027,,,615-387-8693,,
contact429,,Eric,,Fitzhugh,,"3810 Comfort Court",,Arlington,VA,US,53711,608-276-6778,,,efitzhugh@example.com,
contact430,,Sandra,,Stanley,,"153 Cliffside Drive",,Arlington,VA,US,13057,,,,sstanley@example.com,
contact431,,Bernadine,,Lopez,,"1358 Water Street",,Arlington,VA,US,94597,,,,blopez@example.com,
contact432,,Mary,,Rich,,"3663 Gordon Street",,Arlington,VA,US,91789,,909-468-2769,,mrich@example.com,
contact433,,Donald,,Turner,,"4938 Walkers Ridge Way",,Arlington,VA,US,60007,,630-239-6982,,dturner@example.com,
contact434,,Henry,,Lopez,,"680 Dovetail Estates",,Arlington,VA,US,73601,,,,,
contact435,,Molly,,Mann,,"1032 Rocky Road",,Arlington,VA,US,19108,,,215-613-9205,,
contact436,,Nicholas,,Davis,,"3232 Badger Pond Lane",,Arlington,VA,US,33711,727-363-3663,,,ndavis@example.com,
contact437,,Allison,,Hardin,,"4286 Leverton Cove Road",,Arlington,VA,US,01001,,413-374-7019,,,
contact438,,Susan,,Ladner,,"2392 Andell Road",,Arlington,VA,US,43215,,,,,
contact439,,Ellen,,Brown,,"4990 Columbia Boulevard",,Arlington,VA,US,21214,,410-444-4558,,ebrown@example.com,
contact440,,Ray,,Dotson,,"125 Adams Drive",,Arlington,VA,US,76903,,,979-515-8951,rdotson@example.com,
contact441,,Henry,,Woodard,,"4117 D Street",,Arlington,VA,US,48226,,,,,
contact442,,James,,Rodney,,"2050 Felosa Drive",,Arlington,VA,US,90706,323-999-0706,,,jrodney@example.com,
contact443,,Kyle,,Cooper,,"2139 Frederick Street",,Arlington,VA,US,79922,915-875-4275,,,kcooper@example.com,
contact444,,Tiffany,,Hodge,,"4468 Goff Avenue",,Arlington,VA,US,49503,269-584-2024,,,,
contact445,,Kerry,,Pavlik,,"661 Bond Street",,Arlington,VA,US,02887,,401-739-1900,,,
contact446,,David,,Guidry,,"4384 Sigley Road",,Arlington,VA,US,66076,,,785-566-2037,dguidry@example.com,
contact447,,Timothy,,Warren,,"951 Burwell Heights Road",,Arlington,VA,US,77627,,,,,
contact448,,Jesus,,Foltz,,"4853 Melody Lane",,Arlington,VA,US,23219,,,804-404-4397,jfoltz@example.com,
contact449,,Helen,,Chan,,"719 Mill Street",,Arlington,VA,US,29687,864-244-7888,,,,
contact450,,Joseph,,Frederick,,"1272 Westfall Avenue",,Arlington,VA,US,87501,505-983-3269,,,,
contact451,,Emma,,McNamara,,"2455 O Conner Street",,Arlington,VA,US,39564,,,228-591-7795,,
contact452,,Amy,,Lappin,,"1894 Lincoln Street",,Arlington,VA,US,08102,,609-475-9081,,,
contact453,,Allison,,Hayes,,"4772 Eagle Street",,Arlington,VA,US,62450,618-354-3312,,,ahayes@example.com,
contact454,,Fletcher,,Vargo,,"3295 Kinney Street",,Arlington,VA,US,01028,,,,fvargo@example.com,
contact455,,Brett,,King,,"3619 Capitol Avenue",,Arlington,VA,US,47374,765-530-4250,,,bking@example.com,
contact456,,Alice,,Stephens,,"4979 Hillside Drive",,Arlington,VA,US,70570,337-948-3962,,,,
contact457,,Brenda,,Caruso,,"2066 Green Avenue",,Arlington,VA,US,94568,510-815-4947,,,,
contact458,,Michael,,Freeman,,"4701 Nickel Road",,Arlington,VA,US,91723,626-732-7883,,,,
contact459,,Bradley,,Murphy,,"3796 Par Drive",,Arlington,VA,US,93101,,,,bmurphy@example.com,
contact460,,Lee,,Tuttle,,"3671 Rockwell Lane",,Arlington,VA,US,27801,,252-541-7951,,ltuttle@example.com,
contact461,,Jordan,,McCampbell,,"2707 Skinner Hollow Road",,Arlington,VA,US,97885,,541-886-2408,,,
contact462,,Charles,,Perez,,"4997 Whitman Court",,Arlington,VA,US,06103,,203-555-5781,,,
contact463,,Andrew,,Vanetten,,"2172 Still Pastures Drive",,Arlington,VA,US,29720,,803-416-7456,,,
contact464,,Tania,,Harris,,"4208 Benson Park Drive",,Arlington,VA,US,73107,405-514-8755,,,,
contact465,,Steve,,Arnold,,"1861 Jenna Lane",,Arlington,VA,US,45241,,513-944-9747,,,
contact466,,Betty,,Anderson,,"175 Ripple Street",,Arlington,VA,US,48607,,,989-704-1317,,
contact467,,Hisako,,Filler,,"1418 Stout Street",,Arlington,VA,US,17101,717-315-2680,,,,
contact468,,Cecil,,Clark,,"2620 Linda Street",,Arlington,VA,US,19103,267-784-3013,,,,
contact469,,Ernest,,Dehart,,"4633 Melrose Street",,Arlington,VA,US,99109,,,509-936-7808,edehart@example.com,
contact470,,Andy,,Salinas,,"3514 Bubby Drive",,Arlington,VA,US,78741,512-385-4028,,,,
contact471,,Esther,,Murrill,,"1965 Chipmunk Lane",,Arlington,VA,US,04101,,207-780-6942,,emurrill@example.com,
contact472,,Paul,,Ramos,,"1688 Prospect Street",,Arlington,VA,US,08360,,,856-696-2537,pramos@example.com,
contact473,,Willie,,Kerley,,"3834 Tyler Avenue",,Arlington,VA,US,33128,305-350-6153,,,wkerley@example.com,
contact474,,Gary,,Currie,,"4754 Byers Lane",,Arlington,VA,US,95616,530-759-1395,,,,
contact475,,Man,,Young,,"4999 Glen Street",,Arlington,VA,US,40160,270-396-2145,,,myoung@example.com,
contact476,,Maria,,Adame,,"850 Commerce Boulevard",,Arlington,VA,US,68102,,,402-620-9836,madame@example.com,
contact477,,Iris,,Cook,,"134 Hillcrest Lane",,Arlington,VA,US,92677,,,949-831-7064,icook@example.com,
contact478,,Sandra,,Wagner,,"764 Cost Avenue",,Arlington,VA,US,20850,301-424-4036,,,,
contact479,,Nina,,Oakes,,"3578 Gordon Street",,Arlington,VA,US,92405,909-475-9125,,,,
contact480,,Linda,,Oyler,,"4580 Jarvis Street",,Arlington,VA,US,14222,,,,,
contact481,,Melissa,,Thomas,,"3931 Green Avenue",,Arlington,VA,US,94107,,,510-857-1629,,
contact482,,Pamela,,Cravens,,"2417 Douglas Dairy Road",,Arlington,VA,US,24112,,,276-670-5309,,
contact483,,Sandra,,Burrows,,"4822 Bartlett Avenue",,Arlington,VA,US,48033,,248-538-4284,,sburrows@example.com,
contact484,,Steven,,Dearborn,,"1907 Jarvis Street",,Arlington,VA,US,14727,,716-968-2790,,,
contact485,,Michael,,King,,"787 Rockwell Lane",,Arlington,VA,US,28560,252-603-3572,,,,
contact486,,Tracy,,Wilson,,"772 Washington Avenue",,Arlington,VA,US,39211,,601-978-0209,,twilson@example.com,
contact487,,Manuel,,Long,,"2709 Windy Ridge Road",,Arlington,VA,US,46748,,,260-637-6287,,
contact488,,Preston,,Houseknecht,,"501 Bungalow Road",,Arlington,VA,US,68102,402-943-1628,,,,
contact489,,Mary,,Coffman,,"3161 Felosa Drive",,Arlington,VA,US,90017,,323-991-3078,,mcoffman@example.com,
contact490,,Robert,,Vasquez,,"1796 Werninger Street",,Arlington,VA,US,77032,832-643-2079,,,,
contact491,,David,,Sullivan,,"527 Seltice Way",,Arlington,VA,US,83814,,,208-676-1744,dsullivan@example.com,
contact492,,Andrew,,Anderson,,"3286 Hinkle Deegan Lake Road",,Arlington,VA,US,13901,,,607-245-7903,,
contact493,,Jennifer,,Williams,,"4070 Elk Street",,Arlington,VA,US,92718,,,,,
contact494,,Justin,,Williamson,,"196 Pooz Street",,Arlington,VA,US,08884,,,,,
contact495,,Velma,,Brown,,"4431 Rosemont Avenue",,Arlington,VA,US,32751,,,321-853-0564,,
contact496,,Tonya,,Pickens,,"509 Brown Bear Drive",,Arlington,VA,US,92805,,,,,
contact497,,Naomi,,McClure,,"1632 Carolyns Circle",,Arlington,VA,US,75212,,,,nmcclure@example.com,
contact498,,Scott,,Nichols,,"1922 Mulberry Street",,Arlington,VA,US,77360,,936-646-4019,,snichols@example.com,
contact499,,Georgia,,Hasson,,"983 Lowland Drive",,Arlington,VA,US,60606,,,815-401-6445,ghasson@example.com,
contact500,,Michelle,,Mcdaniel,,"4533 Washington Street",,Arlington,VA,US,78476,,,361-376-4753,,
contact501,,Mireya,,Doyle,,"4096 Cameron Road",,Arlington,VA,US,14701,,,,mshipman@example.com,
contact502,,Charles,,Duncan,,"3237 Oakridge Farm Lane",,Arlington,VA,US,53012,,,,cvanbrunt@example.com,
contact503,,Marjorie,,Cohen,,"1196 Wilmar Farm Road",,Arlington,VA,US,20706,240-317-3117,,,mmurray@example.com,
contact504,,Julie,,Powell,,"4877 White Oak Drive",,Arlington,VA,US,64111,,816-756-0858,,jkenworthy@example.com,
contact505,,Delbert,,Byrne,,"4217 Holt Street",,Arlington,VA,US,33463,,,,droland@example.com,
contact506,,Amy,,Byrd,,"2512 Pinewood Drive",,Arlington,VA,US,60457,,847-894-6535,,adelgado@example.com,
contact507,,Clayton,,O'Reilly,,"4924 Goodwin Avenue",,Arlington,VA,US,98801,509-423-1053,,,cgaines@example.com,
contact508,,Catherine,,Knudsen,,"4849 Virginia Street",,Arlington,VA,US,60606,,773-541-5004,,cdietz@example.com,
contact509,,Nanette,,Rose,,"1469 East Avenue",,Arlington,VA,US,85003,480-293-0768,,,,
contact510,,Gilbert,,Martinez,,"1616 Garrett Street",,Arlington,VA,US,49503,,,,gmorris@example.com,
contact511,,Becky,,Curry,,"3146 Southern Avenue",,Arlington,VA,US,50401,,,,,
contact512,,Joseph,,Turner,,"4702 Terra Cotta Street",,Arlington,VA,US,56464,218-564-2726,,,,
contact513,,David,,Laurent,,"3779 Virginia Street",,Arlington,VA,US,60601,,773-573-4336,,,
contact514,,William,,Howard,,"1409 Timberbrook Lane",,Arlington,VA,US,81637,970-337-3056,,,wbelcher@example.com,
contact515,,John,,Robertson,,"4326 Richland Avenue",,Arlington,VA,US,77487,,,,jparker@example.com,
contact516,,Valerie,,Holmes,,"2678 Hummingbird Way",,Arlington,VA,US,02129,,781-957-3263,,,
contact517,,Malcolm,,Allen,,"3827 Elk Street",,Arlington,VA,US,92627,949-631-5508,,,,
contact518,,Melvin,,Sullivan,,"1237 Peaceful Lane",,Arlington,VA,US,44128,216-390-1802,,,,
contact519,,Marlys,,Walsh,,"3611 Lamberts Branch Road",,Arlington,VA,US,33025,786-547-0346,,,mjohnson@example.com,
contact520,,Greta,,Peters,,"95 Laurel Lee",,Arlington,VA,US,55110,,,651-762-2939,gcarrasco@example.com,
contact521,,Carolyn,,Moreno,,"1478 Hidden Meadow Drive",,Arlington,VA,US,58071,701-749-3693,,,,
contact522,,Robert,,Davidson,,"4859 Drainer Avenue",,Arlington,VA,US,32548,,,,rmassey@example.com,
contact523,,Elaine,,Dean,,"1476 Frank Avenue",,Arlington,VA,US,01103,,,,ecrisp@example.com,
contact524,,Erica,,Daniels,,"3546 Simons Hollow Road",,Arlington,VA,US,18701,570-824-6055,,,,
contact525,,Joshua,,Matthews,,"2520 Ritter Avenue",,Arlington,VA,US,48185,,,586-804-0860,,
contact526,,Keith,,Ford,,"1383 Finwood Road",,Arlington,VA,US,07712,,,732-517-2620,,
contact527,,Jerome,,Dixon,,"2006 Green Gate Lane",,Arlington,VA,US,21601,,,443-736-2978,,
contact528,,Bradly,,Tucker,,"2957 Eagle Lane",,Arlington,VA,US,55812,,,,bbarrett@example.com,
contact529,,Naomi,,Gonzales,,"2895 Vesta Drive",,Arlington,VA,US,60637,,,,nreardon@example.com,
contact530,,Lois,,Jimenez,,"4925 West Side Avenue",,Arlington,VA,US,07047,,201-295-8427,,,
contact531,,Nicole,,Chapman,,"1145 Hart Ridge Road",,Arlington,VA,US,48607,,,,nhuskey@example.com,
contact532,,Celia,,Miller,,"534 Joyce Street",,Arlington,VA,US,39355,251-771-2642,,,cray@example.com,
contact533,,Juana,,Ferguson,,"1700 Grant View Drive",,Arlington,VA,US,53216,,414-449-2963,,,
contact534,,Alan,,Byrne,,"2109 Boone Crockett Lane",,Arlington,VA,US,98273,,,,,
contact535,,John,,Carroll,,"4567 Hiddenview Drive",,Arlington,VA,US,19146,,,215-985-3729,,
contact536,,Amy,,Bell,,"1677 College Street",,Arlington,VA,US,30092,,404-319-4576,,,
contact537,,Michael,,Snyder,,"536 Big Elm",,Arlington,VA,US,64106,816-849-9859,,,,
contact538,,Louis,,Jensen,,"452 Rainy Day Drive",,Arlington,VA,US,02129,,,,,
contact539,,Matthew,,Harvey,,"4389 Don Jackson Lane",,Arlington,VA,US,48502,,,810-235-2349,,
contact540,,William,,Reid,,"3726 Ridge Road",,Arlington,VA,US,66770,,,620-848-3747,,
contact541,,Joshua,,Barnett,,"603 Olive Street",,Arlington,VA,US,43626,419-318-9852,,,,
contact542,,Anne,,Neal,,"142 Timbercrest Road",,Arlington,VA,US,99506,907-753-7981,,,,
contact543,,Kelly,,Garcia,,"906 Pearcy Avenue",,Arlington,VA,US,46806,,260-744-1104,,,
contact544,,Ellen,,Graves,,"3831 Coffman Alley",,Arlington,VA,US,42701,270-735-1896,,,ejohnson@example.com,
contact545,,Keith,,Gibson,,"1522 Hartway Street",,Arlington,VA,US,57761,,,605-702-1656,,
contact546,,Todd,,Andrews,,"1994 Smith Street",,Arlington,VA,US,02110,,,508-762-3098,,
contact547,,Mary,,Johansen,,"3601 Pinewood Drive",,Arlington,VA,US,60173,,847-874-8236,,,
contact548,,Mary,,Laurent,,"4258 Stroop Hill Road",,Arlington,VA,US,30329,,404-844-2367,,,
contact549,,Charlotte,,Davis,,"3154 Bassel Street",,Arlington,VA,US,70113,,,985-321-4907,,
contact550,,Norma,,Schulz,,"4633 Harley Brook Lane",,Arlington,VA,US,16801,,,814-596-0902,,
contact551,,Jon,,Stone,,"4232 Ethels Lane",,Arlington,VA,US,33472,,,,jprather@example.com,
contact552,,Michael,,Riley,,"2247 Old Dear Lane",,Arlington,VA,US,10005,,845-818-7759,,mmonreal@example.com,
contact553,,Rod,,Patterson,,"4897 Saint Marys Avenue",,Arlington,VA,US,13601,,315-788-0572,,,
contact554,,Bernice,,Romero,,"1858 Kennedy Court",,Arlington,VA,US,01730,,774-553-8722,,,
contact555,,David,,Gutierrez,,"2649 McKinley Avenue",,Arlington,VA,US,80421,303-838-8974,,,dbolick@example.com,
contact556,,Alberto,,Austin,,"3739 Prudence Street",,Arlington,VA,US,48185,,,,abryant@example.com,
contact557,,Robert,,Fisher,,"553 Wyatt Street",,Arlington,VA,US,33128,,,,rwilcox@example.com,
contact558,,Patricia,,Roberts,,"1717 Travis Street",,Arlington,VA,US,33025,772-480-5051,,,,
contact559,,Jose,,Russell,,"3004 Feathers Hooves Drive",,Arlington,VA,US,11706,631-666-3005,,,,
contact560,,Donna,,Weaver,,"1145 Kennedy Court",,Arlington,VA,US,02132,,774-274-8848,,dswan@example.com,
contact561,,Derek,,Soerensen,,"2846 Angie Drive",,Arlington,VA,US,92668,,,714-935-4677,,
contact562,,Joseph,,"De los Reyes",,"2352 Saint James Drive",,Arlington,VA,US,17082,717-527-4849,,,jhuntley@example.com,
contact563,,Solomon,,Chambers,,"712 James Street",,Arlington,VA,US,14604,,,,sburrill@example.com,
contact564,,Crystal,,Kim,,"2457 Ferguson Street",,Arlington,VA,US,02038,,,508-520-0321,,
contact565,,Philip,,Collins,,"2424 Meadow Drive",,Arlington,VA,US,73135,,,,,
contact566,,Bonnie,,Silva,,"2050 Kelly Street",,Arlington,VA,US,28034,,704-923-9347,,,
contact567,,James,,Janssens,,"192 Randolph Street",,Arlington,VA,US,02532,,,508-743-6729,,
contact568,,Anne,,Gordon,,"2440 Elk Rd Little",,Arlington,VA,US,85718,,520-232-3237,,,
contact569,,Debra,,Ford,,"3256 Crummit Lane",,Arlington,VA,US,68351,,,,dchamplin@example.com,
contact570,,Oscar,,Jacobs,,"3560 Daffodil Lane",,Arlington,VA,US,20170,703-464-6447,,,oblaine@example.com,
contact571,,Janella,,"De los Reyes",,"3651 Maple Lane",,Arlington,VA,US,35802,256-501-8251,,,,
contact572,,Manuel,,James,,"4089 Mahlon Street",,Arlington,VA,US,48075,,,734-227-2772,,
contact573,,Albert,,Nguyen,,"1099 Indiana Avenue",,Arlington,VA,US,96789,,,,,
contact574,,Christopher,,May,,"2366 Thunder Road",,Arlington,VA,US,94108,,,650-576-2804,cgreen@example.com,
contact575,,Susie,,Byrne,,"1672 Bubby Drive",,Arlington,VA,US,78704,,,512-434-8251,smalcolm@example.com,
contact576,,Alexandra,,Boyd,,"4078 Burning Memory Lane",,Arlington,VA,US,19124,,215-289-2545,,awhited@example.com,
contact577,,Felix,,Douglas,,"786 White River Way",,Arlington,VA,US,84106,,,,,
contact578,,Susan,,Brewer,,"1486 Lincoln Street",,Arlington,VA,US,08102,,,,spoling@example.com,
contact579,,Alicia,,Hicks,,"2770 Oakmound Road",,Arlington,VA,US,60661,,,773-299-1640,,
contact580,,Lilla,,Little,,"1148 Patterson Road",,Arlington,VA,US,11418,,718-849-7167,,,
contact581,,George,,Graham,,"2267 Jerry Dove Drive",,Arlington,VA,US,29575,,,843-477-0543,gherr@example.com,
contact582,,Bessie,,Lambert,,"1916 Clement Street",,Arlington,VA,US,30303,404-525-8998,,,,
contact583,,Linda,,Hicks,,"2330 Khale Street",,Arlington,VA,US,29440,,843-527-6110,,,
contact584,,Aaron,,Meyer,,"4497 Kelley Road",,Arlington,VA,US,39507,228-364-8985,,,ahansen@example.com,
contact585,,Jennifer,,Allen,,"163 Grim Avenue",,Arlington,VA,US,92073,,,619-671-9476,,
contact586,,Barbara,,Gonzalez,,"3837 Eastland Avenue",,Arlington,VA,US,39157,,,601-395-7507,,
contact587,,Robert,,Gray,,"271 Patterson Street",,Arlington,VA,US,77002,,,713-346-5221,rgrisham@example.com,
contact588,,Robert,,Oliver,,"866 Still Pastures Drive",,Arlington,VA,US,29150,,,803-488-4704,rgreene@example.com,
contact589,,William,,Baker,,"1431 Hartway Street",,Arlington,VA,US,57718,,605-786-0641,,,
contact590,,Henry,,Long,,"1352 Shingleton Road",,Arlington,VA,US,49077,269-368-7731,,,hfairchild@example.com,
contact591,,Andrew,,Kim,,"4875 Stockert Hollow Road",,Arlington,VA,US,98033,,,,achristianson@example.com,
contact592,,Linda,,Burton,,"3278 West Virginia Avenue",,Arlington,VA,US,12205,,518-839-2412,,lflores@example.com,
contact593,,John,,Dumont,,"1489 Benson Street",,Arlington,VA,US,54943,715-249-4695,,,jhunt@example.com,
contact594,,Andre,,Freeman,,"1670 Duke Lane",,Arlington,VA,US,07071,,732-737-3918,,alopez@example.com,
contact595,,Wanda,,Welch,,"286 Adams Drive",,Arlington,VA,US,77414,979-323-1699,,,,
contact596,,Anna,,Frazier,,"3651 Woodhill Avenue",,Arlington,VA,US,21044,,,410-772-2930,amcdonald@example.com,
contact597,,Barbara,,Cruz,,"2706 Walnut Avenue",,Arlington,VA,US,07662,201-513-5310,,,,
contact598,,Darryl,,Murray,,"2690 Sunny Glen Lane",,Arlington,VA,US,44128,,,,dlebrun@example.com,
contact599,,Patricia,,Claes,,"3550 Rafe Lane",,Arlington,VA,US,38868,662-767-9360,,,,
contact600,,Lucia,,Johansen,,"4152 Bloomfield Way",,Arlington,VA,US,04092,,,,lcole@example.com,
contact601,,Todd,,Butler,,"1524 White Oak Drive",,Arlington,VA,US,64108,,,816-682-6910,,
contact602,,Edith,,Davies,,"91 Peaceful Lane",,Arlington,VA,US,44115,,,,epierce@example.com,
contact603,,Denise,,Douglas,,"4057 Wilmar Farm Road",,Arlington,VA,US,20191,240-255-1357,,,dsoto@example.com,
contact604,,Herschel,,Hernandez,,"1781 Elk City Road",,Arlington,VA,US,71069,318-223-5465,,,hsuggs@example.com,
contact605,,Tabatha,,Chapman,,"176 Hartway Street",,Arlington,VA,US,57104,,,605-728-9489,,
contact606,,Dorothy,,Watts,,"197 Mcwhorter Road",,Arlington,VA,US,38663,662-512-1506,,,dhernandez@example.com,
contact607,,Weston,,Mccoy,,"4984 Winifred Way",,Arlington,VA,US,47374,,,765-625-2907,,
contact608,,Keith,,Dunn,,"740 Hampton Meadows",,Arlington,VA,US,01862,,978-337-8717,,knichols@example.com,
contact609,,Annie,,Martin,,"3623 High Meadow Lane",,Arlington,VA,US,18640,,570-574-7212,,agilliland@example.com,
contact610,,Evan,,Johnson,,"3158 Hott Street",,Arlington,VA,US,74868,405-584-4960,,,ekirklin@example.com,
contact611,,Celestine,,Simpson,,"4735 Cedar Street",,Arlington,VA,US,72210,,,870-842-2162,,
contact612,,Barbara,,Watts,,"894 Fieldcrest Road",,Arlington,VA,US,11743,,,,bkirby@example.com,
contact613,,Teresa,,Newman,,"3045 Adonais Way",,Arlington,VA,US,30071,678-481-3374,,,tlashley@example.com,
contact614,,Terry,,Gonzalez,,"3610 Ingram Street",,Arlington,VA,US,45402,,,,,
contact615,,Karen,,Carlson,,"4992 Maxwell Street",,Arlington,VA,US,06103,,,,kpauley@example.com,
contact616,,Lawrence,,Washington,,"1406 Hillview Drive",,Arlington,VA,US,30240,,706-885-1377,,lmorrow@example.com,
contact617,,Ruth,,Hoffmann,,"4440 Hood Avenue",,Arlington,VA,US,92103,,,,,
contact618,,Walter,,Neal,,"851 Adams Avenue",,Arlington,VA,US,20785,,301-636-0195,,,
contact619,,Kala,,Byrd,,"1327 White Oak Drive",,Arlington,VA,US,64151,,816-741-8571,,,
contact620,,Melody,,Levi,,"6 Cedarstone Drive",,Arlington,VA,US,43612,,,,mcarraway@example.com,
contact621,,Jessica,,Bowman,,"4326 Coburn Hollow Road",,Arlington,VA,US,61401,,309-345-9924,,,
contact622,,Dorothy,,Ramos,,"3136 School House Road",,Arlington,VA,US,39211,,,601-680-7991,djacobs@example.com,
contact623,,Harry,,Lane,,"4175 Black Stallion Road",,Arlington,VA,US,41006,,859-472-3037,,,
contact624,,Lindsey,,Morgan,,"3575 Southside Lane",,Arlington,VA,US,90017,323-764-3213,,,lwatson@example.com,
contact625,,Hugo,,Poulsen,,"3858 Kenwood Place",,Arlington,VA,US,33301,,,,hhunt@example.com,
contact626,,James,,Harris,,"1932 Quincy Street",,Arlington,VA,US,18974,,,267-503-5517,jwilliams@example.com,
contact627,,Donald,,Nguyen,,"4667 Lucy Lane",,Arlington,VA,US,47408,812-494-6930,,,drobb@example.com,
contact628,,Jacqueline,,Fowler,,"2910 Stuart Street",,Arlington,VA,US,15212,724-400-0836,,,,
contact629,,Ernest,,Doyle,,"1354 Ralph Drive",,Arlington,VA,US,44055,,,440-233-0132,ekelly@example.com,
contact630,,Catherine,,Ferguson,,"2765 Zimmerman Lane",,Arlington,VA,US,90014,213-403-2943,,,,
contact631,,Angela,,Carpenter,,"4592 Raccoon Run",,Arlington,VA,US,98105,,206-925-9737,,,
contact632,,Mark,,O'Neill,,"1304 Woodland Terrace",,Arlington,VA,US,95827,,,916-856-6739,,
contact633,,Anita,,Cole,,"2878 Sycamore Street",,Arlington,VA,US,94103,,408-850-9844,,amoyer@example.com,
contact634,,Mary,,Wood,,"252 Sugar Camp Road",,Arlington,VA,US,56283,,,507-638-9039,mvarner@example.com,
contact635,,John,,Nguyen,,"1817 Hickory Street",,Arlington,VA,US,84107,,801-685-2547,,jsmith@example.com,
contact636,,Hector,,Walker,,"3450 Whitman Court",,Arlington,VA,US,06450,203-631-4877,,,hfisher@example.com,
contact637,,Bruce,,Hardy,,"782 Rosemont Avenue",,Arlington,VA,US,32746,,321-750-8154,,bwilkinson@example.com,
contact638,,Susan,,Christensen,,"3471 B Street",,Arlington,VA,US,55121,,651-687-6571,,swright@example.com,
contact639,,Joseph,,Laurent,,"4111 Pin Oak Drive",,Arlington,VA,US,90807,562-989-1380,,,jyoung@example.com,
contact640,,Todd,,Butler,,"4480 Walnut Drive",,Arlington,VA,US,58782,,,,tbrockman@example.com,
contact641,,Chris,,Richards,,"37 Leroy Lane",,Arlington,VA,US,57461,605-887-1144,,,cgallagher@example.com,
contact642,,Albert,,Turner,,"1372 South Street",,Arlington,VA,US,79744,432-639-9107,,,abailey@example.com,
contact643,,Sandra,,Payne,,"2623 Friendship Lane",,Arlington,VA,US,95054,,,,,
contact644,,James,,Black,,"1035 Hazelwood Avenue",,Arlington,VA,US,50309,,515-508-8739,,,
contact645,,Paul,,Austin,,"884 Felosa Drive",,Arlington,VA,US,78643,,,325-247-9175,,
contact646,,Lisa,,Alvarez,,"4564 Euclid Avenue",,Arlington,VA,US,93101,,805-260-6682,,,
contact647,,Charles,,Olson,,"4158 Alpaca Way",,Arlington,VA,US,90621,,,,,
contact648,,Rose,,Rhodes,,"265 Pratt Avenue",,Arlington,VA,US,98010,,360-886-0060,,rdenson@example.com,
contact649,,Sylvia,,Jacobs,,"370 Burnside Court",,Arlington,VA,US,85009,602-442-1775,,,,
contact650,,Rhonda,,Nelson,,"1866 Joyce Street",,Arlington,VA,US,36542,,,251-964-1052,,
contact651,,Vera,,Hernandez,,"2104 Bartlett Avenue",,Arlington,VA,US,48235,,,,vholm@example.com,
contact652,,Nathan,,Leclercq,,"4603 Sycamore Street",,Arlington,VA,US,95054,,,408-896-8394,,
contact653,,Sue,,Black,,"2434 Fairmont Avenue",,Arlington,VA,US,64484,,,660-235-7264,sgatewood@example.com,
contact654,,Elizabeth,,Meyer,,"3803 Melm Street",,Arlington,VA,US,02909,401-285-1364,,,,
contact655,,Susan,,Hayes,,"2298 Bluff Street",,Arlington,VA,US,21502,301-723-7619,,,,
contact656,,Marvin,,Mendoza,,"4588 Hinkle Deegan Lake Road",,Arlington,VA,US,14850,,,,,
contact657,,Daniel,,Hunter,,"698 Beechwood Drive",,Arlington,VA,US,21001,410-994-1153,,,,
contact658,,Everett,,Fields,,"4639 Lake Road",,Arlington,VA,US,08102,,609-309-4930,,,
contact659,,Tina,,Crawford,,"2790 Burwell Heights Road",,Arlington,VA,US,77591,409-683-6359,,,ttravis@example.com,
contact660,,Herbert,,Shelton,,"4832 Oak Way",,Arlington,VA,US,68501,402-458-4624,,,hbethea@example.com,
contact661,,France,,Kennedy,,"4116 Conifer Drive",,Arlington,VA,US,98109,,,425-458-0220,,
contact662,,Eleanor,,Simmons,,"1348 Stockert Hollow Road",,Arlington,VA,US,98204,,,425-923-1903,eramos@example.com,
contact663,,Phyllis,,Martinez,,"2167 Pinewood Avenue",,Arlington,VA,US,49903,906-661-6298,,,pyager@example.com,
contact664,,Doris,,Shaw,,"4799 Duffy Street",,Arlington,VA,US,46383,,,,,
contact665,,Frank,,Holmes,,"492 Nickel Road",,Arlington,VA,US,90017,,,626-657-1395,,
contact666,,Leon,,Hunt,,"4104 Midway Road",,Arlington,VA,US,72823,,,,lmize@example.com,
contact667,,Robert,,Murray,,"171 Bastin Drive",,Arlington,VA,US,19108,,484-749-6891,,rfleming@example.com,
contact668,,Ella,,Berry,,"4214 Lightning Point Drive",,Arlington,VA,US,38110,,,901-533-5596,ebyers@example.com,
contact669,,Bethany,,Hall,,"2092 Freshour Circle",,Arlington,VA,US,78258,,,,,
contact670,,Glenda,,Watts,,"4210 Sardis Station",,Arlington,VA,US,55402,,,612-468-5480,gphillips@example.com,
contact671,,James,,Craig,,"2199 Dogwood Road",,Arlington,VA,US,85012,,,602-651-8455,,
contact672,,Joseph,,Jennings,,"4904 Davisson Street",,Arlington,VA,US,46254,765-891-2538,,,,
contact673,,Robert,,Petersen,,"1894 Green Avenue",,Arlington,VA,US,94612,,,510-835-2081,rmerlin@example.com,
contact674,,Vito,,Horton,,"4644 Main Street",,Arlington,VA,US,98208,,,425-754-5926,vhadfield@example.com,
contact675,,Dianne,,Phillips,,"606 Grant View Drive",,Arlington,VA,US,53151,,414-507-7521,,deby@example.com,
contact676,,Scott,,Owens,,"2772 Eagle Street",,Arlington,VA,US,62206,,,618-337-1667,,
contact677,,Freddy,,Howard,,"4158 Chicago Avenue",,Arlington,VA,US,93721,,,,,
contact678,,Opal,,Bowman,,"1181 Capitol Avenue",,Arlington,VA,US,46036,,765-552-1730,,,
contact679,,Rodney,,Mertens,,"2779 Sunburst Drive",,Arlington,VA,US,33901,,,239-312-3803,rhicks@example.com,
contact680,,April,,Gonzalez,,"2027 Despard Street",,Arlington,VA,US,30310,,,404-756-1050,acunningham@example.com,
contact681,,Clara,,Dupont,,"2036 Metz Lane",,Arlington,VA,US,08070,856-961-4821,,,,
contact682,,Danny,,Fields,,"3403 Melrose Street",,Arlington,VA,US,99362,,509-876-0207,,,
contact683,,Patricia,,Mitchell,,"2330 Dark Hollow Road",,Arlington,VA,US,08104,,,,pbach@example.com,
contact684,,Howard,,Nichols,,"1513 Jarvisville Road",,Arlington,VA,US,48933,517-230-7611,,,,
contact685,,Stacy,,Hamilton,,"2401 Peck Street",,Arlington,VA,US,03079,603-890-5191,,,slopez@example.com,
contact686,,Karen,,Woods,,"1695 Hillview Drive",,Arlington,VA,US,30540,,,,,
contact687,,Francisco,,Gomez,,"3151 Hillcrest Drive",,Arlington,VA,US,98055,,,,fkopecky@example.com,
contact688,,Francisco,,Hunter,,"753 Foley Street",,Arlington,VA,US,33311,,954-632-7248,,,
contact689,,Ryan,,Day,,"1344 Delaware Avenue",,Arlington,VA,US,94143,,,415-278-3252,rdelossantos@example.com,
contact690,,Amber,,Gonzales,,"4986 Drummond Street",,Arlington,VA,US,07102,,,,agreen@example.com,
contact691,,Sarah,,Vasquez,,"4261 Florence Street",,Arlington,VA,US,75124,,,903-425-5032,sguerra@example.com,
contact692,,Victor,,Weber,,"2454 Barfield Lane",,Arlington,VA,US,46250,,,,vdowdy@example.com,
contact693,,Audra,,Knudsen,,"2229 Green Gate Lane",,Arlington,VA,US,21221,,,443-777-4162,,
contact694,,Rickey,,Chapman,,"1536 Linden Avenue",,Arlington,VA,US,32789,,,407-559-6898,,
contact695,,Margaret,,O'Connor,,"2106 Glory Road",,Arlington,VA,US,37204,,,,,
contact696,,Karin,,Ward,,"2033 Nicholas Street",,Arlington,VA,US,67665,,,785-324-9318,,
contact697,,Blanca,,"De los Reyes",,"4866 Junkins Avenue",,Arlington,VA,US,31701,229-483-3943,,,,
contact698,,Roger,,Carr,,"2337 Quincy Street",,Arlington,VA,US,19108,267-525-4377,,,rmorales@example.com,
contact699,,Linda,,Herrera,,"4686 Lowndes Hill Park Road",,Arlington,VA,US,93308,661-399-4198,,,lguzman@example.com,
contact700,,Michelle,,Brown,,"1770 Ralph Drive",,Arlington,VA,US,44022,440-247-1188,,,mbrown@example.com,
contact701,,Alison,,Sanders,,"396 Jefferson Street",,Arlington,VA,US,23502,,,757-715-5232,,
contact702,,David,,Angel,,"4116 Morningview Lane",,Arlington,VA,US,10001,,,,dangel@example.com,
contact703,,Scott,,Sebastian,,"3088 Williams Lane",,Arlington,VA,US,67216,,,316-670-3416,,
contact704,,Raymond,,Flynn,,"1960 Blane Street",,Arlington,VA,US,63130,314-572-7290,,,,
contact705,,Jeffrey,,Vick,,"4871 Shobe Lane",,Arlington,VA,US,80634,,970-506-9439,,jvick@example.com,
contact706,,Jacquelyn,,Lonergan,,"2943 Whitetail Lane",,Arlington,VA,US,75209,,,,jlonergan@example.com,
contact707,,Celia,,Ramirez,,"4328 May Street",,Arlington,VA,US,40422,,,606-304-3475,cramirez@example.com,
contact708,,Jared,,Wilson,,"4726 Shady Pines Drive",,Arlington,VA,US,42431,,270-963-4071,,,
contact709,,Ruthann,,Parker,,"521 Eagle Lane",,Arlington,VA,US,56528,,,218-758-2604,,
contact710,,Matthew,,Riendeau,,"2356 Glendale Avenue",,Arlington,VA,US,91335,,,818-705-8080,mriendeau@example.com,
contact711,,Robert,,Platt,,"2483 Francis Mine",,Arlington,VA,US,95814,530-214-6132,,,rplatt@example.com,
contact712,,James,,Nelson,,"3683 Benson Park Drive",,Arlington,VA,US,74857,405-386-1779,,,jnelson@example.com,
contact713,,Paul,,Keen,,"653 Sherwood Circle",,Arlington,VA,US,70629,,,,,
contact714,,Marie,,Higgins,,"1542 Wayside Lane",,Arlington,VA,US,94612,,,510-279-4936,mhiggins@example.com,
contact715,,Jose,,Diaz,,"34 Myra Street",,Arlington,VA,US,02914,,,401-434-4670,jdiaz@example.com,
contact716,,Van,,Kramer,,"2902 Valley Street",,Arlington,VA,US,08108,,856-858-8954,,,
contact717,,Charles,,Fulton,,"3678 Foley Street",,Arlington,VA,US,33132,,,,,
contact718,,Joseph,,Brown,,"988 Fidler Drive",,Arlington,VA,US,78023,,210-695-9084,,jbrown@example.com,
contact719,,Phillip,,Vassallo,,"326 Hillside Street",,Arlington,VA,US,85251,480-429-7908,,,,
contact720,,Wayne,,Andrews,,"3670 Hudson Street",,Arlington,VA,US,07102,,973-996-9575,,,
contact721,,Richard,,Carver,,"2772 Bungalow Road",,Arlington,VA,US,68114,,,402-940-6072,rcarver@example.com,
contact722,,Elena,,Hunter,,"471 Abia Martin Drive",,Arlington,VA,US,11729,,,,ehunter@example.com,
contact723,,Jenifer,,Centers,,"415 Buck Drive",,Arlington,VA,US,05301,802-209-6321,,,,
contact724,,Antonio,,Gomez,,"2785 Southern Avenue",,Arlington,VA,US,52501,641-455-3403,,,,
contact725,,Randi,,Bird,,"1878 Emerson Road",,Arlington,VA,US,71101,318-743-2563,,,,
contact726,,John,,Watts,,"1921 Patton Lane",,Arlington,VA,US,74106,,918-975-4974,,,
contact727,,Ted,,Baldwin,,"818 Reeves Street",,Arlington,VA,US,54241,,,920-794-1778,tbaldwin@example.com,
contact728,,Kevin,,Jacobs,,"1817 Coffman Alley",,Arlington,VA,US,42701,,,,,
contact729,,Martin,,McCarthy,,"3625 Memory Lane",,Arlington,VA,US,60115,,,815-906-7797,,
contact730,,Hugh,,Ibanez,,"2978 Birch  Street",,Arlington,VA,US,79922,,,,,
contact731,,Nancy,,Russell,,"2893 State Street",,Arlington,VA,US,48204,313-935-3441,,,nrussell@example.com,
contact732,,Dwayne,,Sinha,,"405 Armbrester Drive",,Arlington,VA,US,90744,310-522-0859,,,,
contact733,,Patrick,,Smith,,"1696 Swick Hill Street",,Arlington,VA,US,28202,,980-328-7190,,psmith@example.com,
contact734,,Brian,,Faison,,"588 Howard Street",,Arlington,VA,US,48846,,,616-522-9811,bfaison@example.com,
contact735,,Anthony,,Davenport,,"2107 Clarence Court",,Arlington,VA,US,90017,909-963-6058,,,,
contact736,,Anna,,Stotler,,"319 Union Street",,Arlington,VA,US,98118,,,206-721-3871,astotler@example.com,
contact737,,Christopher,,Shaw,,"4925 Strother Street",,Arlington,VA,US,35592,,205-695-6879,,cshaw@example.com,
contact738,,Joseph,,Fontanez,,"4626 Calico Drive",,Arlington,VA,US,99201,,509-621-4029,,,
contact739,,Chad,,Strickland,,"3603 Hall Valley Drive",,Arlington,VA,US,25801,304-619-4937,,,cstrickland@example.com,
contact740,,Nancy,,Johnson,,"1414 Amethyst Drive",,Arlington,VA,US,48910,,517-394-2407,,njohnson@example.com,
contact741,,Sara,,Salgado,,"2804 Harvest Lane",,Arlington,VA,US,93304,661-204-8601,,,,
contact742,,Jennifer,,Young,,"2848 White Avenue",,Arlington,VA,US,77957,,,,jyoung@example.com,
contact743,,Bennett,,Goodrich,,"3514 Thompson Drive",,Arlington,VA,US,94587,,510-477-3021,,bgoodrich@example.com,
contact744,,Michelle,,Davis,,"2200 Bedford Street",,Arlington,VA,US,06902,,,203-916-6856,mdavis@example.com,
contact745,,Susan,,Boylan,,"2208 Pine Tree Lane",,Arlington,VA,US,21773,,,240-385-9220,,
contact746,,Larry,,Ramirez,,"3072 Dennison Street",,Arlington,VA,US,95354,209-522-8912,,,lramirez@example.com,
contact747,,Brian,,Goll,,"399 Small Street",,Arlington,VA,US,10014,,,212-884-9342,,
contact748,,Mark,,Meister,,"2207 Settlers Lane",,Arlington,VA,US,11743,,,,mmeister@example.com,
contact749,,Billy,,Whitham,,"2311 Renwick Drive",,Arlington,VA,US,18109,484-272-9716,,,,
contact750,,Sandra,,Welch,,"922 Olive Street",,Arlington,VA,US,43602,419-343-1680,,,,
contact751,,Sherie,,Rowe,,"4584 Bryan Avenue",,Arlington,VA,US,55415,651-294-3877,,,srowe@example.com,
contact752,,Harold,,Nelsen,,"3483 West Side Avenue",,Arlington,VA,US,07662,,201-315-4395,,,
contact753,,Edgar,,Leach,,"1288 Crowfield Road",,Arlington,VA,US,85003,,,,eleach@example.com,
contact754,,David,,Daly,,"1268 Lowland Drive",,Arlington,VA,US,61334,,815-368-0448,,,
contact755,,Reginald,,Gannaway,,"3613 Bolman Court",,Arlington,VA,US,61820,,,,rgannaway@example.com,
contact756,,Nellie,,Carpenter,,"4939 Sigley Road",,Arlington,VA,US,67657,,,,,
contact757,,Dorothy,,Cho,,"2427 Winifred Way",,Arlington,VA,US,47374,765-725-3576,,,dcho@example.com,
contact758,,Roberto,,Plunkett,,"69 Pooz Street",,Arlington,VA,US,08901,,,732-247-0047,rplunkett@example.com,
contact759,,Anita,,McNeely,,"4325 Fidler Drive",,Arlington,VA,US,78209,,,210-720-2022,,
contact760,,Aaron,,Maxwell,,"76 Hiddenview Drive",,Arlington,VA,US,19103,,,215-987-3141,amaxwell@example.com,
contact761,,Thomas,,Manske,,"3524 Tuna Street",,Arlington,VA,US,48226,,,810-834-6011,,
contact762,,Paul,,McCowan,,"4145 Andell Road",,Arlington,VA,US,37214,,615-231-5436,,,
contact763,,Tammy,,Adams,,"741 Gandy Street",,Arlington,VA,US,13202,,315-215-4681,,tadams@example.com,
contact764,,Alfred,,Buie,,"4019 Davis Street",,Arlington,VA,US,30802,,706-309-8702,,,
contact765,,Amber,,Mullin,,"496 Jail Drive",,Arlington,VA,US,61235,,,309-936-0750,amullin@example.com,
contact766,,Miriam,,Davis,,"4397 Murphy Court",,Arlington,VA,US,93632,951-941-2324,,,mdavis@example.com,
contact767,,Ryan,,Garon,,"441 Filbert Street",,Arlington,VA,US,19020,,,,,
contact768,,Paula,,Thompson,,"4220 Radford Street",,Arlington,VA,US,40202,,,502-322-0287,,
contact769,,Regina,,Nelson,,"3610 Tetrick Road",,Arlington,VA,US,33610,,863-271-2182,,rnelson@example.com,
contact770,,Cheryl,,Johnston,,"3400 Quiet Valley Lane",,Arlington,VA,US,91403,,818-978-1373,,,
contact771,,Evelyn,,Johnson,,"747 Alpha Avenue",,Arlington,VA,US,32250,,,,,
contact772,,Velma,,Cahill,,"2951 Thompson Street",,Arlington,VA,US,90248,,562-652-3975,,vcahill@example.com,
contact773,,Todd,,Bessey,,"4626 Clarence Court",,Arlington,VA,US,91761,909-974-4475,,,tbessey@example.com,
contact774,,Linda,,Hazard,,"4288 Leisure Lane",,Arlington,VA,US,93401,,805-597-9171,,,
contact775,,Nancy,,Martineau,,"3517 Pallet Street",,Arlington,VA,US,10940,,914-443-5036,,,
contact776,,Courtney,,Huff,,"2907 Frum Street",,Arlington,VA,US,37201,,,615-261-7487,,
contact777,,Jamie,,Skinner,,"3378 Mandan Road",,Arlington,VA,US,65024,,,,,
contact778,,Jacquelyn,,Keen,,"2133 Valley View Drive",,Arlington,VA,US,02146,,,617-713-7945,,
contact779,,Steven,,Porter,,"1651 Burke Street",,Arlington,VA,US,01701,,,781-265-9301,sporter@example.com,
contact780,,Nathan,,Medina,,"631 Center Street",,Arlington,VA,US,97526,,541-956-2089,,nmedina@example.com,
contact781,,Ryan,,Curley,,"3295 White Oak Drive",,Arlington,VA,US,64111,816-759-1406,,,rcurley@example.com,
contact782,,Mark,,Hirsch,,"2225 Elk Rd Little",,Arlington,VA,US,85292,,520-357-3174,,mhirsch@example.com,
contact783,,Melissa,,Long,,"2863 Randolph Street",,Arlington,VA,US,01581,508-735-0933,,,mlong@example.com,
contact784,,Donna,,Yorke,,"510 Bryan Street",,Arlington,VA,US,28202,336-203-6922,,,dyorke@example.com,
contact785,,Jack,,Williams,,"3230 Green Hill Road",,Arlington,VA,US,72712,,,479-224-0527,,
contact786,,Tonya,,Jack,,"1115 Fowler Avenue",,Arlington,VA,US,30071,,770-242-1787,,,
contact787,,Jerry,,James,,"3685 Fantages Way",,Arlington,VA,US,04101,,,207-761-8331,,
contact788,,Eric,,Ayala,,"4265 Monroe Avenue",,Arlington,VA,US,34209,941-761-4068,,,,
contact789,,Alice,,Rhodes,,"3909 James Martin Circle",,Arlington,VA,US,43215,,,,arhodes@example.com,
contact790,,Allen,,Totten,,"3442 Timbercrest Road",,Arlington,VA,US,99827,,907-767-7125,,atotten@example.com,
contact791,,Kimberly,,Ledbetter,,"4061 Villa Drive",,Arlington,VA,US,46516,,,,,
contact792,,Veronica,,Smith,,"14 Dogwood Road",,Arlington,VA,US,85003,602-625-1890,,,vsmith@example.com,
contact793,,James,,Geist,,"473 Bassell Avenue",,Arlington,VA,US,67202,,,501-648-6173,,
contact794,,Li,,Denton,,"4593 University Drive",,Arlington,VA,US,60606,,312-726-8926,,,
contact795,,Joe,,Fishel,,"1626 Willison Street",,Arlington,VA,US,55402,,,763-390-8296,jfishel@example.com,
contact796,,Agnes,,Stahl,,"395 Adonais Way",,Arlington,VA,US,30097,,,678-492-6529,,
contact797,,Thomas,,Stecker,,"3700 Junkins Avenue",,Arlington,VA,US,31701,229-639-4663,,,tstecker@example.com,
contact798,,Harriet,,Pearce,,"1374 Andell Road",,Arlington,VA,US,43215,,614-915-3089,,,
contact799,,Brenda,,Davis,,"2230 Cedarstone Drive",,Arlington,VA,US,43457,,,,,
contact800,,John,,Bowden,,"2466 Center Avenue",,Arlington,VA,US,93706,,559-399-5349,,,
contact801,,Charles,,Bailey,,"2973 Limer Street",,Arlington,VA,US,30901,,706-447-8397,,cbailey@example.com,
contact802,,Luigi,,May,,"455 Southern Avenue",,Arlington,VA,US,50213,,641-340-7205,,lmay@example.com,
contact803,,Ronald,,Power,,"2694 Mayo Street",,Arlington,VA,US,45202,,,859-795-0692,rpower@example.com,
contact804,,Deborah,,Cox,,"2842 Boggess Street",,Arlington,VA,US,53151,,937-919-7880,,,
contact805,,Donald,,Ellis,,"1418 Stonepot Road",,Arlington,VA,US,08853,,,908-371-8516,,
contact806,,Joshua,,Oconnell,,"3817 Fairfax Drive",,Arlington,VA,US,92805,,,909-219-6695,,
contact807,,Stanley,,McNeil,,"745 Joseph Street",,Arlington,VA,US,53151,262-758-5473,,,smcneil@example.com,
contact808,,Joseph,,Martinez,,"1634 Froe Street",,Arlington,VA,US,26187,304-375-4923,,,,
contact809,,Margaret,,Everett,,"1574 C Street",,Arlington,VA,US,01803,,508-395-5893,,meverett@example.com,
contact810,,Scott,,Agar,,"3428 Illinois Avenue",,Arlington,VA,US,97230,,,503-730-3266,,
contact811,,Warren,,Barnes,,"3335 Cody Ridge Road",,Arlington,VA,US,73947,,,580-546-0800,,
contact812,,Scott,,Weber,,"3696 Robinson Lane",,Arlington,VA,US,43201,,,740-370-7247,sweber@example.com,
contact813,,Sabina,,Lemon,,"1969 Sugar Camp Road",,Arlington,VA,US,56001,507-506-7159,,,slemon@example.com,
contact814,,Leslie,,Porter,,"2061 Park Boulevard",,Arlington,VA,US,50106,,641-498-2060,,,
contact815,,Isabel,,Clutter,,"4963 Clarence Court",,Arlington,VA,US,91761,909-975-9094,,,iclutter@example.com,
contact816,,Edward,,Mattingly,,"4249 Farland Avenue",,Arlington,VA,US,78055,,,,emattingly@example.com,
contact817,,Walter,,Austin,,"29 Liberty Avenue",,Arlington,VA,US,90071,,,,waustin@example.com,
contact818,,Frances,,Hayden,,"2396 Norma Avenue",,Arlington,VA,US,77868,,,,fhayden@example.com,
contact819,,Andrew,,Tillery,,"2678 Saint James Drive",,Arlington,VA,US,17257,,,,,
contact820,,Anna,,Potts,,"3378 Fraggle Drive",,Arlington,VA,US,60540,,,630-357-7970,,
contact821,,Harold,,Boswell,,"4279 Griffin Street",,Arlington,VA,US,85003,,,,hboswell@example.com,
contact822,,Rebecca,,Edington,,"4066 Patterson Road",,Arlington,VA,US,10461,,,,redington@example.com,
contact823,,Linda,,Lee,,"1814 Sherman Street",,Arlington,VA,US,66044,785-865-0575,,,,
contact824,,Gary,,Griffin,,"3106 Locust Street",,Arlington,VA,US,31707,,,,,
contact825,,Clarence,,Gallardo,,"99 Ocala Street",,Arlington,VA,US,32801,407-478-8727,,,cgallardo@example.com,
contact826,,Huong,,Jackson,,"2333 Lincoln Drive",,Arlington,VA,US,17116,,717-641-1616,,,
contact827,,Lance,,Talley,,"164 Elk Rd Little",,Arlington,VA,US,85706,,520-294-9335,,ltalley@example.com,
contact828,,Sophia,,Watson,,"2992 Overlook Drive",,Arlington,VA,US,46052,,,,swatson@example.com,
contact829,,Albert,,Chavarria,,"310 Sweetwood Drive",,Arlington,VA,US,80010,,303-344-6192,,,
contact830,,Glenn,,Watson,,"1845 Mill Street",,Arlington,VA,US,33823,,,863-965-4096,gwatson@example.com,
contact831,,Wilbur,,Wolfe,,"2904 Meadowcrest Lane",,Arlington,VA,US,42501,,,,,
contact832,,Drucilla,,Stewart,,"4237 Cherry Tree Drive",,Arlington,VA,US,32082,904-285-1813,,,dstewart@example.com,
contact833,,Neil,,Vincent,,"4810 Kessla Way",,Arlington,VA,US,29501,843-292-9669,,,,
contact834,,John,,McWhorter,,"1623 Harper Street",,Arlington,VA,US,42431,,,,jmcwhorter@example.com,
contact835,,Bernice,,Browning,,"2667 Tea Berry Lane",,Arlington,VA,US,54729,,715-726-6259,,,
contact836,,Robert,,Searcy,,"2684 Tator Patch Road",,Arlington,VA,US,60631,312-927-7628,,,,
contact837,,William,,Ball,,"4789 Gore Street",,Arlington,VA,US,77026,713-544-1533,,,,
contact838,,John,,McFarlane,,"1466 Pinnickinnick Street",,Arlington,VA,US,07008,732-802-5982,,,,
contact839,,Jeanett,,Clarke,,"4061 Rockwell Lane",,Arlington,VA,US,28501,,252-525-3866,,jclarke@example.com,
contact840,,Ronald,,Shuler,,"2371 Frosty Lane",,Arlington,VA,US,13901,,,,,
contact841,,Norma,,Burns,,"4107 Burwell Heights Road",,Arlington,VA,US,77553,,409-632-7034,,nburns@example.com,
contact842,,Sarah,,Carlson,,"3554 Jefferson Street",,Arlington,VA,US,23669,,,757-728-5752,,
contact843,,Johnnie,,Cervantes,,"3139 East Avenue",,Arlington,VA,US,85207,480-357-1904,,,jcervantes@example.com,
contact844,,Coy,,Colon,,"2742 Rainbow Drive",,Arlington,VA,US,44702,330-455-3245,,,,
contact845,,Ryan,,Howard,,"3355 Fieldcrest Road",,Arlington,VA,US,10013,,,631-925-2397,,
contact846,,Anne,,Davis,,"4870 Aviation Way",,Arlington,VA,US,75201,214-206-3367,,,,
contact847,,Rosa,,Morgan,,"2573 Little Acres Lane",,Arlington,VA,US,61727,,,,,
contact848,,Cynthia,,Gifford,,"3530 Pretty View Lane",,Arlington,VA,US,94612,,707-896-0314,,,
contact849,,Maryann,,Denton,,"833 Stonepot Road",,Arlington,VA,US,07102,,,,mdenton@example.com,
contact850,,Louie,,Harrison,,"4932 Spirit Drive",,Arlington,VA,US,32720,386-785-7698,,,,
contact851,,Erma,,Higginbotham,,"634 Eva Pearl Street",,Arlington,VA,US,70814,225-747-4431,,,ehigginbotham@example.com,
contact852,,Frankie,,Jones,,"4472 Fincham Road",,Arlington,VA,US,90017,,,760-490-1169,,
contact853,,Michael,,Furtado,,"4402 Eastland Avenue",,Arlington,VA,US,39201,,,601-431-7010,mfurtado@example.com,
contact854,,Joe,,Clarke,,"310 Maxwell Farm Road",,Arlington,VA,US,22801,,,,jclarke@example.com,
contact855,,Debra,,Smith,,"482 Spruce Drive",,Arlington,VA,US,15201,,724-971-9777,,dsmith@example.com,
contact856,,Lucy,,Cruz,,"4731 Oakmound Road",,Arlington,VA,US,60628,,,773-264-4923,lcruz@example.com,
contact857,,Lee,,Johnston,,"1767 Ingram Road",,Arlington,VA,US,27203,,,336-566-1342,ljohnston@example.com,
contact858,,Edith,,Farrand,,"526 Maryland Avenue",,Arlington,VA,US,33566,,727-542-1345,,,
contact859,,Kimberly,,Calkins,,"1518 Green Acres Road",,Arlington,VA,US,27801,,,252-467-6077,kcalkins@example.com,
contact860,,David,,Sheffield,,"332 Khale Street",,Arlington,VA,US,29577,,,,,
contact861,,Kevin,,Kim,,"4846 Leisure Lane",,Arlington,VA,US,91362,,805-557-0613,,kkim@example.com,
contact862,,Laci,,Roberts,,"3700 Romano Street",,Arlington,VA,US,02421,,,,,
contact863,,Sherri,,Hansen,,"148 Rocky Road",,Arlington,VA,US,19020,,,215-626-1872,,
contact864,,Laura,,Crews,,"4911 Johnson Street",,Arlington,VA,US,27529,,,919-809-7726,,
contact865,,Carmine,,Brown,,"1867 Cunningham Court",,Arlington,VA,US,48075,,,,cbrown@example.com,
contact866,,Glenn,,Morrell,,"4196 Doe Meadow Drive",,Arlington,VA,US,20763,301-554-6085,,,,
contact867,,Sheldon,,Parnell,,"2500 Retreat Avenue",,Arlington,VA,US,04101,207-299-0896,,,sparnell@example.com,
contact868,,Leslie,,Jones,,"2053 University Drive",,Arlington,VA,US,60606,,,312-782-8742,ljones@example.com,
contact869,,Maria,,Edwards,,"4027 Stonepot Road",,Arlington,VA,US,08865,908-454-9289,,,,
contact870,,Karen,,Taylor,,"4856 White Lane",,Arlington,VA,US,31206,,,,ktaylor@example.com,
contact871,,Elvia,,Sparkman,,"2275 Riverwood Drive",,Arlington,VA,US,95928,,,,esparkman@example.com,
contact872,,Yun,,Lawrence,,"1271 Junior Avenue",,Arlington,VA,US,30097,,404-550-4941,,ylawrence@example.com,
contact873,,Lynn,,Magwood,,"3649 University Hill Road",,Arlington,VA,US,62019,,,217-537-2568,lmagwood@example.com,
contact874,,Russell,,Sepulveda,,"2527 Bobcat Drive",,Arlington,VA,US,48302,248-224-6419,,,,
contact875,,Clinton,,Sharma,,"4695 Gambler Lane",,Arlington,VA,US,77088,,281-929-0334,,csharma@example.com,
contact876,,Debra,,Filson,,"3257 Westfall Avenue",,Arlington,VA,US,56164,,507-215-4029,,,
contact877,,Thomas,,Thomas,,"616 Summit Street",,Arlington,VA,US,52806,,563-388-5157,,tthomas@example.com,
contact878,,Crystal,,Pettigrew,,"4971 Bingamon Branch Road",,Arlington,VA,US,12790,,,,,
contact879,,Robert,,Thompson,,"2351 Brighton Circle Road",,Arlington,VA,US,56303,,,320-434-4970,,
contact880,,Daniel,,Wilder,,"2211 Science Center Drive",,Arlington,VA,US,83702,208-639-8182,,,,
contact881,,Anne,,Marchan,,"4236 Harter Street",,Arlington,VA,US,45429,,,,amarchan@example.com,
contact882,,Evelyn,,Buller,,"1033 Jarvisville Road",,Arlington,VA,US,11530,516-892-7380,,,ebuller@example.com,
contact883,,Tim,,Lowe,,"905 Stadium Drive",,Arlington,VA,US,02141,,,508-283-6821,tlowe@example.com,
contact884,,Martin,,Butler,,"940 Happy Hollow Road",,Arlington,VA,US,28307,910-643-3203,,,,
contact885,,Louise,,Ingram,,"255 Fannie Street",,Arlington,VA,US,78940,,,979-263-1886,,
contact886,,Toby,,Myers,,"4217 Big Elm",,Arlington,VA,US,64068,,,,,
contact887,,Victor,,Roberson,,"2120 Barrington Court",,Arlington,VA,US,72351,,,870-526-5075,vroberson@example.com,
contact888,,Robert,,Webb,,"3319 Terry Lane",,Arlington,VA,US,32801,,321-296-4243,,,
contact889,,James,,Clark,,"4441 Perry Street",,Arlington,VA,US,48461,,,,jclark@example.com,
contact890,,Derick,,Green,,"2091 Hill Street",,Arlington,VA,US,43609,,,,,
contact891,,Dani,,Romero,,"74 Fleming Way",,Arlington,VA,US,23227,,804-681-2263,,dromero@example.com,
contact892,,Debbie,,Quinn,,"1688 Thunder Road",,Arlington,VA,US,94010,,,650-548-7361,,
contact893,,Yesenia,,Anderson,,"4784 Alfred Drive",,Arlington,VA,US,17233,,,,yanderson@example.com,
contact894,,Nancy,,Kee,,"1108 Mulberry Avenue",,Arlington,VA,US,72211,501-378-9525,,,,
contact895,,Anna,,Miller,,"2323 Steele Street",,Arlington,VA,US,60106,,,,amiller@example.com,
contact896,,Ernesto,,Obryan,,"4264 Sycamore Street",,Arlington,VA,US,94103,,,408-907-3861,eobryan@example.com,
contact897,,Shena,,Patterson,,"3293 Forest Drive",,Arlington,VA,US,22042,703-849-2631,,,,
contact898,,Amy,,Molinaro,,"1954 Boundary Street",,Arlington,VA,US,32202,,,,,
contact899,,Mercedes,,Jackson,,"4791 Hillcrest Circle",,Arlington,VA,US,55430,,,763-569-4669,,
contact900,,Kenneth,,Scott,,"4096 Little Acres Lane",,Arlington,VA,US,61778,,,217-949-3217,kscott@example.com,
contact901,,Steven,,Calhoun,,"4028 Pride Avenue",,Arlington,VA,US,10467,,,718-325-2539,scalhoun@example.com,
contact902,,Norman,,Richie,,"2378 Gateway Avenue",,Arlington,VA,US,93534,,,,nrichie@example.com,
contact903,,Brian,,White,,"3985 Radford Street",,Arlington,VA,US,40242,,,502-332-9525,bwhite@example.com,
contact904,,Andres,,Morales,,"2156 Duff Avenue",,Arlington,VA,US,05773,,,,,
contact905,,Christopher,,Miller,,"2311 Dennison Street",,Arlington,VA,US,95207,,209-472-4519,,cmiller@example.com,
contact906,,Julie,,Pitts,,"1418 Pearl Street",,Arlington,VA,US,95823,,,,jpitts@example.com,
contact907,,Jeremy,,Jobe,,"4023 Cooks Mine Road",,Arlington,VA,US,88101,,,505-705-8542,,
contact908,,Sarah,,Stripling,,"898 Lakeland Terrace",,Arlington,VA,US,48075,,,,sstripling@example.com,
contact909,,Karen,,Mize,,"4546 Harry Place",,Arlington,VA,US,28120,,,704-820-7839,,
contact910,,Jonnie,,Peter,,"3175 Stonepot Road",,Arlington,VA,US,07102,,,,jpeter@example.com,
contact911,,Ryan,,Speller,,"1064 Abia Martin Drive",,Arlington,VA,US,11530,,,,rspeller@example.com,
contact912,,Betty,,Wilkin,,"3764 Barnes Street",,Arlington,VA,US,32801,,,407-245-3399,,
contact913,,Donald,,Ybarra,,"2420 Farnum Road",,Arlington,VA,US,10004,212-361-9971,,,,
contact914,,Dwight,,Robinson,,"4936 Libby Street",,Arlington,VA,US,90301,,,310-330-3574,drobinson@example.com,
contact915,,Rosemary,,Evens,,"4766 Kenwood Place",,Arlington,VA,US,33301,954-522-8917,,,revens@example.com,
contact916,,Kathleen,,Cartwright,,"1564 Sycamore Circle",,Arlington,VA,US,58501,,,,,
contact917,,Elizabeth,,Johnson,,"4080 Elk Avenue",,Arlington,VA,US,49230,,,517-592-2911,ejohnson@example.com,
contact918,,Carolyn,,Baker,,"4122 Bryan Avenue",,Arlington,VA,US,55121,651-431-3963,,,cbaker@example.com,
contact919,,James,,Barnes,,"781 Nutter Street",,Arlington,VA,US,64106,816-308-0889,,,,
contact920,,James,,Christiansen,,"4726 Callison Lane",,Arlington,VA,US,19711,,,,jchristiansen@example.com,
contact921,,Marian,,Hathcock,,"3959 Pearlman Avenue",,Arlington,VA,US,01801,,,,mhathcock@example.com,
contact922,,John,,Mayfield,,"4966 Pearl Street",,Arlington,VA,US,95826,,916-295-2736,,jmayfield@example.com,
contact923,,Christine,,Marroquin,,"701 Stratford Drive",,Arlington,VA,US,96797,,,808-344-8518,cmarroquin@example.com,
contact924,,Bernard,,Staley,,"4328 Sigley Road",,Arlington,VA,US,67432,,,785-632-9120,bstaley@example.com,
contact925,,Eleanor,,Pittman,,"337 Hillview Street",,Arlington,VA,US,29201,,803-742-7583,,epittman@example.com,
contact926,,Jason,,Taylor,,"4283 White Oak Drive",,Arlington,VA,US,64501,,,816-689-5523,,
contact927,,Hugh,,Ellington,,"1669 Virginia Street",,Arlington,VA,US,60089,773-617-2764,,,hellington@example.com,
contact928,,Leslie,,Payne,,"4255 Elmwood Avenue",,Arlington,VA,US,85259,,,480-862-3790,,
contact929,,Eugene,,Shaffer,,"3571 Lightning Point Drive",,Arlington,VA,US,38110,,901-524-0003,,eshaffer@example.com,
contact930,,Christine,,Robinette,,"794 Webster Street",,Arlington,VA,US,07095,,,732-602-7688,,
contact931,,Francis,,Digirolamo,,"463 Red Dog Road",,Arlington,VA,US,28202,,,704-348-1093,,
contact932,,Robert,,Shoop,,"3197 Woodbridge Lane",,Arlington,VA,US,48075,,,313-465-2182,,
contact933,,Ana,,Lady,,"445 Robinson Lane",,Arlington,VA,US,43950,,,,alady@example.com,
contact934,,Laura,,Tuck,,"3099 Scenic Way",,Arlington,VA,US,62758,217-706-8899,,,ltuck@example.com,
contact935,,Jose,,Fuller,,"4927 Collins Avenue",,Arlington,VA,US,43081,,,614-865-5203,,
contact936,,Hazel,,Meza,,"1263 Hart Ridge Road",,Arlington,VA,US,48607,,989-312-9723,,hmeza@example.com,
contact937,,Patricia,,Gaston,,"3124 Southern Street",,Arlington,VA,US,11756,,,516-657-0297,,
contact938,,Sarah,,Beardsley,,"195 Poe Lane",,Arlington,VA,US,64106,,913-499-7947,,,
contact939,,George,,Watson,,"2172 Spruce Drive",,Arlington,VA,US,15212,,,724-913-1540,gwatson@example.com,
contact940,,Kelly,,Constantine,,"3162 Scheuvront Drive",,Arlington,VA,US,80111,,,,kconstantine@example.com,
contact941,,Leanne,,Lowe,,"3679 Golden Street",,Arlington,VA,US,33056,,305-624-2091,,,
contact942,,Kelly,,Prasad,,"2255 Blair Court",,Arlington,VA,US,64735,,,,kprasad@example.com,
contact943,,Janet,,Collier,,"528 Plainfield Avenue",,Arlington,VA,US,13502,315-600-2564,,,jcollier@example.com,
contact944,,Isabel,,Johnson,,"1489 Benson Park Drive",,Arlington,VA,US,73107,,,405-463-1587,,
contact945,,Fred,,Hofer,,"2271 Birch Street",,Arlington,VA,US,46225,,,,,
contact946,,Floyd,,Harbison,,"2774 Ferrell Street",,Arlington,VA,US,55723,,,218-376-9775,fharbison@example.com,
contact947,,Michael,,Fennell,,"1299 Elkview Drive",,Arlington,VA,US,33410,772-403-6875,,,,
contact948,,Jeff,,Eisenhart,,"4869 Willow Oaks Lane",,Arlington,VA,US,70506,337-350-7986,,,jeisenhart@example.com,
contact949,,Barbara,,Cote,,"3805 Goff Avenue",,Arlington,VA,US,49093,,,,bcote@example.com,
contact950,,Cynthia,,Lansing,,"2436 McDowell Street",,Arlington,VA,US,37334,,931-433-5056,,,
contact951,,Francis,,Deangelo,,"4713 Commerce Boulevard",,Arlington,VA,US,68508,,402-601-1938,,fdeangelo@example.com,
contact952,,Ronald,,Robison,,"4983 Fidler Drive",,Arlington,VA,US,78201,210-731-0198,,,,
contact953,,Mike,,Whitfield,,"1914 Ashwood Drive",,Arlington,VA,US,51501,,,,mwhitfield@example.com,
contact954,,Joseph,,Carson,,"4290 Godfrey Road",,Arlington,VA,US,10019,212-492-9409,,,,
contact955,,Selena,,Rio,,"2497 Olive Street",,Arlington,VA,US,45841,419-326-5713,,,srio@example.com,
contact956,,Samuel,,Stewart,,"2296 Blane Street",,Arlington,VA,US,63101,314-539-8966,,,sstewart@example.com,
contact957,,George,,King,,"3552 Morgan Street",,Arlington,VA,US,32531,,,850-537-9352,,
contact958,,Frank,,Goldston,,"4084 Smith Street",,Arlington,VA,US,02026,,,508-846-9089,,
contact959,,Travis,,Mendez,,"123 Cecil Street",,Arlington,VA,US,60610,,312-302-0863,,tmendez@example.com,
contact960,,Nellie,,Koehler,,"146 Lighthouse Drive",,Arlington,VA,US,65616,,,,,
contact961,,Dorothy,,Cronin,,"3245 Maple Court",,Arlington,VA,US,65401,573-341-7638,,,,
contact962,,Larry,,Babcock,,"3636 Christie Way",,Arlington,VA,US,02038,,,,lbabcock@example.com,
contact963,,Doris,,Thomas,,"3146 Kincheloe Road",,Arlington,VA,US,97205,,,,dthomas@example.com,
contact964,,Carmen,,Lawrence,,"2967 West Virginia Avenue",,Arlington,VA,US,12205,,,,,
contact965,,Joseph,,Davis,,"4816 Palmer Road",,Arlington,VA,US,43085,614-642-6218,,,,
contact966,,Pearl,,Schutt,,"3276 Hillhaven Drive",,Arlington,VA,US,90036,,323-930-7196,,,
contact967,,William,,Phillips,,"4860 Giraffe Hill Drive",,Arlington,VA,US,75244,,,,,
contact968,,David,,Manning,,"2918 Werninger Street",,Arlington,VA,US,77036,,,832-695-7058,,
contact969,,Linda,,Everette,,"232 Anmoore Road",,Arlington,VA,US,10019,718-713-7190,,,leverette@example.com,
contact970,,Brandi,,Pitts,,"4728 Tuna Street",,Arlington,VA,US,48060,,,,bpitts@example.com,
contact971,,Geoffrey,,Swaney,,"901 Haymond Rocks Road",,Arlington,VA,US,97401,,,,gswaney@example.com,
contact972,,Michael,,Lyles,,"4830 Charla Lane",,Arlington,VA,US,75081,,972-729-3939,,mlyles@example.com,
contact973,,Emma,,West,,"259 Westwood Avenue",,Arlington,VA,US,11756,,,516-839-3288,,
contact974,,Sarah,,Foster,,"4880 Glenview Drive",,Arlington,VA,US,78401,,,,,
contact975,,Adele,,Leu,,"2686 Austin Avenue",,Arlington,VA,US,31324,912-315-1551,,,aleu@example.com,
contact976,,William,,Stewart,,"3149 Koontz Lane",,Arlington,VA,US,91601,,,,,
contact977,,Rebecca,,Bradley,,"428 Myra Street",,Arlington,VA,US,02840,,,401-493-9273,,
contact978,,Matthew,,Cummings,,"3678 Willow Greene Drive",,Arlington,VA,US,36104,,,,mcummings@example.com,
contact979,,Steven,,Butcher,,"519 Ethels Lane",,Arlington,VA,US,33602,863-733-8888,,,sbutcher@example.com,
contact980,,Ruth,,Dick,,"2005 McVaney Road",,Arlington,VA,US,28787,,,,rdick@example.com,
contact981,,Michael,,Martin,,"3282 Timber Oak Drive",,Arlington,VA,US,93458,,805-928-1923,,mmartin@example.com,
contact982,,Robin,,Elder,,"1387 Five Points",,Arlington,VA,US,21201,,,,,
contact983,,Mai,,Brindley,,"1064 John Avenue",,Arlington,VA,US,49201,,,517-782-5014,mbrindley@example.com,
contact984,,Larry,,Newlon,,"632 Collins Avenue",,Arlington,VA,US,43213,,,614-856-8721,,
contact985,,Miquel,,Perkins,,"3342 Adonais Way",,Arlington,VA,US,30339,,,,mperkins@example.com,
contact986,,Larry,,Laboy,,"4257 Broad Street",,Arlington,VA,US,35203,205-443-5328,,,,
contact987,,Floyd,,Sanchez,,"2901 Renwick Drive",,Arlington,VA,US,19107,484-266-6900,,,,
contact988,,Annie,,Stewart,,"2972 Hamill Avenue",,Arlington,VA,US,92110,,858-236-2233,,,
contact989,,Monika,,Esquivel,,"1943 Strother Street",,Arlington,VA,US,35209,,,,mesquivel@example.com,
contact990,,Amber,,Haynes,,"1658 Edington Drive",,Arlington,VA,US,30308,,678-850-1549,,ahaynes@example.com,
contact991,,John,,Strickland,,"4 Petunia Way",,Arlington,VA,US,35209,205-877-2246,,,jstrickland@example.com,
contact992,,Lydia,,Moser,,"3414 Black Stallion Road",,Arlington,VA,US,40507,859-509-0469,,,lmoser@example.com,
contact993,,Alejandra,,Kennon,,"61 Buena Vista Avenue",,Arlington,VA,US,97477,,541-741-4419,,akennon@example.com,
contact994,,Lois,,Buchanan,,"371 Franklin Street",,Arlington,VA,US,36345,,334-693-2046,,,
contact995,,Priscilla,,Clayton,,"4125 Clousson Road",,Arlington,VA,US,51347,712-832-6106,,,pclayton@example.com,
contact996,,Thelma,,Ortiz,,"1519 Memory Lane",,Arlington,VA,US,61335,,,815-882-9079,,
contact997,,Lucille,,Ammons,,"428 Tibbs Avenue",,Arlington,VA,US,59701,,,,lammons@example.com,
contact998,,Jason,,Edelson,,"2763 Philli Lane",,Arlington,VA,US,74119,,,918-537-1931,,
contact999,,Brandon,,Dailey,,"120 Thomas Street",,Arlington,VA,US,60173,,,847-558-1903,bdailey@example.com,
